{"data": [{"Auction Location":"Abilene 79601","Auction":"IAAI","City":"Hawley","State":"TX","Zip":79525,"Savannah, GA":900,"Newark, NJ":1.35,"Houston, TX":350,"Los Angeles, CA":750,"Indianapolis, IN":950},{"Auction Location":"ABILENE, TX 79601","Auction":"Copart","City":"ABILENE","State":"TX","Zip":79601,"Savannah, GA":900,"Newark, NJ":1.35,"Houston, TX":350,"Los Angeles, CA":750,"Indianapolis, IN":950},{"Auction Location":"ACE - Carson (CA) 90248","Auction":"IAAI","City":"Carson","State":"CA","Zip":90248,"Los Angeles, CA":150},{"Auction Location":"ACE - Perris (CA) 92571","Auction":"IAAI","City":"Perris","State":"CA","Zip":92571,"Savannah, GA":1.45,"Newark, NJ":1.55,"Houston, TX":850,"Los Angeles, CA":150,"Indianapolis, IN":1.35},{"Auction Location":"Akron-Canton 44663","Auction":"IAAI","City":"New Philadelphia","State":"OH","Zip":44663,"Savannah, GA":700,"Newark, NJ":400,"Houston, TX":950,"Los Angeles, CA":1.75,"Indianapolis, IN":400},{"Auction Location":"Albany","Auction":"Manhei m","City":"Clifton Park","State":"NY","Zip":12065,"Savannah, GA":750,"Newark, NJ":250,"Houston, TX":1.25,"Los Angeles, CA":1.65,"Indianapolis, IN":500},{"Auction Location":"ALBANY 12205","Auction":"Copart","City":"ALBANY","State":"NY","Zip":12205,"Savannah, GA":750,"Newark, NJ":250,"Houston, TX":1.25,"Los Angeles, CA":1.65,"Indianapolis, IN":500},{"Auction Location":"Albany 12303","Auction":"IAAI","City":"Schenectady","State":"NY","Zip":12303,"Savannah, GA":750,"Newark, NJ":275,"Houston, TX":1.25,"Los Angeles, CA":1.65,"Indianapolis, IN":500},{"Auction Location":"Albuquerque 87105","Auction":"IAAI","City":"Albuquerque","State":"NM","Zip":"87105-\r\n0612","Savannah, GA":1.05,"Newark, NJ":1.35,"Houston, TX":525,"Los Angeles, CA":550,"Indianapolis, IN":1.25},{"Auction Location":"ALBUQUERQUE 87105","Auction":"Copart","City":"ALBUQUERQU E","State":"NM","Zip":87105,"Savannah, GA":1.05,"Newark, NJ":1.35,"Houston, TX":525,"Los Angeles, CA":550,"Indianapolis, IN":1.25},{"Auction Location":"ALTOONA 15931","Auction":"Copart","City":"EBENSBURG","State":"PA","Zip":15931,"Savannah, GA":850,"Newark, NJ":350,"Houston, TX":1.25,"Los Angeles, CA":1.65,"Indianapolis, IN":450},{"Auction Location":"Altoona 16637","Auction":"IAAI","City":"East Freedom","State":"PA","Zip":16637,"Savannah, GA":750,"Newark, NJ":350,"Houston, TX":1.25,"Los Angeles, CA":1.65,"Indianapolis, IN":550},{"Auction Location":"Amarillo (TX) 79118","Auction":"IAAI","City":"Amarillo","State":"TX","Zip":79118,"Savannah, GA":950,"Newark, NJ":1.35,"Houston, TX":450,"Los Angeles, CA":750,"Indianapolis, IN":950},{"Auction Location":"AMARILLO, TX 79118","Auction":"Copart","City":"AMARILLO","State":"TX","Zip":79118,"Savannah, GA":950,"Newark, NJ":1.35,"Houston, TX":450,"Los Angeles, CA":750,"Indianapolis, IN":950},{"Auction Location":"Anaheim 92806","Auction":"IAAI","City":"Anaheim","State":"CA","Zip":"92806-\r\n1308","Savannah, GA":1.45,"Newark, NJ":1.55,"Houston, TX":850,"Los Angeles, CA":150,"Indianapolis, IN":1.35},{"Auction Location":"Anchorage (AK)","Auction":"IAAI","City":"Wasilla","State":"AK","Zip":99654,"Savannah, GA":3.35,"Newark, NJ":2.95,"Houston, TX":2.75,"Los Angeles, CA":2,"Indianapolis, IN":2.55},{"Auction Location":"ANCHORAGE 99501","Auction":"Copart","City":"ANCHORAGE","State":"AK","Zip":99501,"Savannah, GA":3.35,"Newark, NJ":2.95,"Houston, TX":2.75,"Los Angeles, CA":2,"Indianapolis, IN":2.55},{"Auction Location":"ANDREWS, TX 79714","Auction":"Copart","City":"ANDREWS","State":"TX","Zip":79714,"Savannah, GA":900,"Newark, NJ":1.35,"Houston, TX":400,"Los Angeles, CA":750,"Indianapolis, IN":950},{"Auction Location":"ANTELOPE 95843","Auction":"Copart","City":"ANTELOPE","State":"CA","Zip":95843,"Savannah, GA":1.55,"Newark, NJ":1.55,"Houston, TX":950,"Los Angeles, CA":350,"Indianapolis, IN":1.35},{"Auction Location":"Appleton 54914","Auction":"IAAI","City":"Appleton","State":"WI","Zip":"54914-\r\n9156","Savannah, GA":1.1,"Newark, NJ":800,"Houston, TX":1.15,"Los Angeles, CA":1.95,"Indianapolis, IN":375},{"Auction Location":"APPLETON, WI 54914","Auction":"Copart","City":"APPLETON","State":"WI","Zip":54914,"Savannah, GA":1.1,"Newark, NJ":800,"Houston, TX":1.15,"Los Angeles, CA":1.95,"Indianapolis, IN":400},{"Auction Location":"Arena Illinois","Auction":"Manhei m","City":"Bolingbrook","State":"IL","Zip":60440,"Savannah, GA":800,"Newark, NJ":500,"Houston, TX":850,"Los Angeles, CA":1.55,"Indianapolis, IN":200},{"Auction Location":"Arizona","Auction":"Manhei m","City":"Phoenix","State":"AZ","Zip":85040,"Savannah, GA":1.3,"Newark, NJ":1.35,"Houston, TX":700,"Los Angeles, CA":325,"Indianapolis, IN":1.35},{"Auction Location":"Asheville (NC) 28732","Auction":"IAAI","City":"Fletcher","State":"NC","Zip":28732,"Savannah, GA":325,"Newark, NJ":450,"Houston, TX":850,"Los Angeles, CA":1.45,"Indianapolis, IN":750},{"Auction Location":"Ashland 41102","Auction":"IAAI","City":"Ashland","State":"KY","Zip":41102,"Savannah, GA":600,"Newark, NJ":550,"Houston, TX":800,"Los Angeles, CA":1.55,"Indianapolis, IN":500},{"Auction Location":"Atlanta","Auction":"Manhei m","City":"College Park","State":"GA","Zip":30349,"Savannah, GA":250,"Newark, NJ":800,"Houston, TX":800,"Los Angeles, CA":1.6,"Indianapolis, IN":750},{"Auction Location":"Atlanta 30052","Auction":"IAAI","City":"Loganville","State":"GA","Zip":"30052-\r\n4814","Savannah, GA":250,"Newark, NJ":800,"Houston, TX":800,"Los Angeles, CA":1.6,"Indianapolis, IN":750},{"Auction Location":"Atlanta 30213","Auction":"Adesa","City":"Fairburn","State":"GA","Zip":30213,"Savannah, GA":250,"Newark, NJ":800,"Houston, TX":800,"Los Angeles, CA":1.6,"Indianapolis, IN":750},{"Auction Location":"ATLANTA EAST 30052","Auction":"Copart","City":"LOGANVILLE","State":"GA","Zip":30052,"Savannah, GA":250,"Newark, NJ":800,"Houston, TX":800,"Los Angeles, CA":1.6,"Indianapolis, IN":750},{"Auction Location":"Atlanta East 30680","Auction":"IAAI","City":"Winder","State":"GA","Zip":30680,"Savannah, GA":275,"Newark, NJ":800,"Houston, TX":800,"Los Angeles, CA":1.6,"Indianapolis, IN":750},{"Auction Location":"Atlanta North 30101","Auction":"IAAI","City":"Acworth","State":"GA","Zip":30101,"Savannah, GA":250,"Newark, NJ":800,"Houston, TX":800,"Los Angeles, CA":1.6,"Indianapolis, IN":750},{"Auction Location":"ATLANTA NORTH 30507","Auction":"Copart","City":"GAINESVILLE","State":"GA","Zip":30507,"Savannah, GA":275,"Newark, NJ":800,"Houston, TX":800,"Los Angeles, CA":1.6,"Indianapolis, IN":750},{"Auction Location":"Atlanta South 30260","Auction":"IAAI","City":"Lake City","State":"GA","Zip":30260,"Savannah, GA":250,"Newark, NJ":800,"Houston, TX":800,"Los Angeles, CA":1.6,"Indianapolis, IN":750},{"Auction Location":"ATLANTA SOUTH 30294","Auction":"Copart","City":"ELLENWOOD","State":"GA","Zip":30294,"Savannah, GA":250,"Newark, NJ":800,"Houston, TX":800,"Los Angeles, CA":1.6,"Indianapolis, IN":750},{"Auction Location":"ATLANTA WEST 30168","Auction":"Copart","City":"AUSTELL","State":"GA","Zip":30168,"Savannah, GA":250,"Newark, NJ":800,"Houston, TX":800,"Los Angeles, CA":1.6,"Indianapolis, IN":750},{"Auction Location":"Austin 78616","Auction":"IAAI","City":"Dale","State":"TX","Zip":78616,"Savannah, GA":750,"Newark, NJ":1.2,"Houston, TX":225,"Los Angeles, CA":850,"Indianapolis, IN":950},{"Auction Location":"Austin 78754","Auction":"Adesa","City":"Austin","State":"TX","Zip":78754,"Savannah, GA":750,"Newark, NJ":1.2,"Houston, TX":225,"Los Angeles, CA":850,"Indianapolis, IN":950},{"Auction Location":"AUSTIN, TX 78130","Auction":"Copart","City":"NEW BRAUNFELS","State":"TX","Zip":78130,"Savannah, GA":750,"Newark, NJ":1.2,"Houston, TX":225,"Los Angeles, CA":950,"Indianapolis, IN":950},{"Auction Location":"Avenel New Jersey 07001","Auction":"IAAI","City":"Avenel","State":"NJ","Zip":7001,"Savannah, GA":650,"Newark, NJ":150,"Houston, TX":1.05,"Los Angeles, CA":1.65,"Indianapolis, IN":600},{"Auction Location":"BAKERSFIELD 93307","Auction":"Copart","City":"BAKERSFIELD","State":"CA","Zip":93307,"Savannah, GA":1.55,"Newark, NJ":1.55,"Houston, TX":950,"Los Angeles, CA":225,"Indianapolis, IN":1.35},{"Auction Location":"BALTIMORE 21048","Auction":"Copart","City":"FINKSBURG","State":"MD","Zip":21048,"Savannah, GA":650,"Newark, NJ":275,"Houston, TX":950,"Los Angeles, CA":1.65,"Indianapolis, IN":650},{"Auction Location":"Baltimore 21226","Auction":"IAAI","City":"Baltimore","State":"MD","Zip":21226,"Savannah, GA":650,"Newark, NJ":275,"Houston, TX":950,"Los Angeles, CA":1.65,"Indianapolis, IN":650},{"Auction Location":"Baltimore- Washington","Auction":"Manhei m","City":"Elkridge","State":"MD","Zip":21075,"Savannah, GA":650,"Newark, NJ":275,"Houston, TX":950,"Los Angeles, CA":1.65,"Indianapolis, IN":650},{"Auction Location":"BATON ROUGE 70739","Auction":"Copart","City":"GREENWELL SPRINGS","State":"LA","Zip":70739,"Savannah, GA":450,"Newark, NJ":850,"Houston, TX":300,"Los Angeles, CA":1.05,"Indianapolis, IN":800},{"Auction Location":"Baton Rouge 70754","Auction":"IAAI","City":"Livingston","State":"LA","Zip":70754,"Savannah, GA":450,"Newark, NJ":850,"Houston, TX":325,"Los Angeles, CA":1.05,"Indianapolis, IN":800},{"Auction Location":"Billings (MT) 59101","Auction":"IAAI","City":"Billings","State":"MT","Zip":59101,"Savannah, GA":1.65,"Newark, NJ":1.35,"Houston, TX":1.35,"Los Angeles, CA":1.05,"Indianapolis, IN":1.05},{"Auction Location":"BILLINGS 59103","Auction":"Copart","City":"BILLINGS","State":"MT","Zip":59103,"Savannah, GA":1.65,"Newark, NJ":1.35,"Houston, TX":1.35,"Los Angeles, CA":1.05,"Indianapolis, IN":1.05},{"Auction Location":"Birmingham","Auction":"Manhei m","City":"Birmingham","State":"AL","Zip":35210,"Savannah, GA":375,"Newark, NJ":700,"Houston, TX":600,"Los Angeles, CA":1.45,"Indianapolis, IN":800},{"Auction Location":"Birmingham 35004","Auction":"Adesa","City":"Moody","State":"AL","Zip":35004,"Savannah, GA":375,"Newark, NJ":700,"Houston, TX":600,"Los Angeles, CA":1.45,"Indianapolis, IN":800},{"Auction Location":"Birmingham 35022","Auction":"IAAI","City":"Bessemer","State":"AL","Zip":35022,"Savannah, GA":375,"Newark, NJ":700,"Houston, TX":600,"Los Angeles, CA":1.45,"Indianapolis, IN":800},{"Auction Location":"BIRMINGHAM 35023","Auction":"Copart","City":"HUEYTOWN","State":"AL","Zip":35023,"Savannah, GA":375,"Newark, NJ":700,"Houston, TX":600,"Los Angeles, CA":1.45,"Indianapolis, IN":800},{"Auction Location":"Boise","Auction":"Adesa","City":"Boise","State":"ID","Zip":83716,"Savannah, GA":1.75,"Newark, NJ":1.35,"Houston, TX":1.15,"Los Angeles, CA":750,"Indianapolis, IN":750},{"Auction Location":"Boise 83605","Auction":"IAAI","City":"Caldwell","State":"ID","Zip":"83605-\r\n6077","Savannah, GA":1.75,"Newark, NJ":1.35,"Houston, TX":1.15,"Los Angeles, CA":750,"Indianapolis, IN":750},{"Auction Location":"BOISE 83651","Auction":"Copart","City":"NAMPA","State":"ID","Zip":83651,"Savannah, GA":1.75,"Newark, NJ":1.35,"Houston, TX":1.15,"Los Angeles, CA":750,"Indianapolis, IN":750},{"Auction Location":"Boston - Shirley (MA) 01464","Auction":"IAAI","City":"Shirley","State":"MA","Zip":1464,"Savannah, GA":850,"Newark, NJ":350,"Houston, TX":1.25,"Los Angeles, CA":1.85,"Indianapolis, IN":750},{"Auction Location":"Boston 01702","Auction":"Adesa","City":"Framingham","State":"MA","Zip":1702,"Savannah, GA":850,"Newark, NJ":350,"Houston, TX":1.25,"Los Angeles, CA":1.85,"Indianapolis, IN":750},{"Auction Location":"Bowling Green (KY) 42101","Auction":"IAAI","City":"Bowling Green","State":"KY","Zip":42101,"Savannah, GA":475,"Newark, NJ":600,"Houston, TX":750,"Los Angeles, CA":1.55,"Indianapolis, IN":475},{"Auction Location":"Brashers 95673","Auction":"Adesa","City":"Rio Linda","State":"CA","Zip":95673,"Savannah, GA":1.55,"Newark, NJ":1.55,"Houston, TX":950,"Los Angeles, CA":325,"Indianapolis, IN":1.35},{"Auction Location":"Bridgeport PA 19405","Auction":"IAAI","City":"Bridgeport","State":"PA","Zip":19405,"Savannah, GA":700,"Newark, NJ":250,"Houston, TX":1.05,"Los Angeles, CA":1.65,"Indianapolis, IN":550},{"Auction Location":"Bridgeton, MO 63044","Auction":"TRA","City":"Bridgeton","State":"MO","Zip":63044,"Savannah, GA":700,"Newark, NJ":550,"Houston, TX":750,"Los Angeles, CA":1.55,"Indianapolis, IN":250},{"Auction Location":"Buckhannon 26201","Auction":"IAAI","City":"Buckhannon","State":"WV","Zip":26201,"Savannah, GA":650,"Newark, NJ":550,"Houston, TX":850,"Los Angeles, CA":1.65,"Indianapolis, IN":550},{"Auction Location":"Buffalo 14001","Auction":"Adesa","City":"Akron","State":"NY","Zip":14001,"Savannah, GA":850,"Newark, NJ":425,"Houston, TX":1.35,"Los Angeles, CA":1.65,"Indianapolis, IN":500},{"Auction Location":"Buffalo 14207","Auction":"IAAI","City":"buffalo","State":"NY","Zip":14207,"Savannah, GA":850,"Newark, NJ":425,"Houston, TX":1.35,"Los Angeles, CA":1.65,"Indianapolis, IN":500},{"Auction Location":"BUFFALO, NY 14006","Auction":"Copart","City":"ANGOLA","State":"NY","Zip":14006,"Savannah, GA":850,"Newark, NJ":425,"Houston, TX":1.35,"Los Angeles, CA":1.65,"Indianapolis, IN":500},{"Auction Location":"Burlington 05451","Auction":"IAAI","City":"Essex","State":"VT","Zip":5451,"Savannah, GA":950,"Newark, NJ":400,"Houston, TX":1.4,"Los Angeles, CA":1.95,"Indianapolis, IN":900},{"Auction Location":"California","Auction":"Manhei m","City":"Anaheim","State":"CA","Zip":92807,"Savannah, GA":1.45,"Newark, NJ":1.55,"Houston, TX":850,"Los Angeles, CA":150,"Indianapolis, IN":1.35},{"Auction Location":"CANDIA NH 03034","Auction":"Copart","City":"Candia","State":"NH","Zip":3034,"Savannah, GA":850,"Newark, NJ":350,"Houston, TX":1.35,"Los Angeles, CA":1.95,"Indianapolis, IN":850},{"Auction Location":"CARTERSVILLE 30120","Auction":"Copart","City":"CARTERSVILLE","State":"GA","Zip":30120,"Savannah, GA":275,"Newark, NJ":800,"Houston, TX":800,"Los Angeles, CA":1.6,"Indianapolis, IN":750},{"Auction Location":"Casper","Auction":"Adesa","City":"Casper","State":"WY","Zip":82601,"Savannah, GA":1.15,"Newark, NJ":1.05,"Houston, TX":900,"Los Angeles, CA":950,"Indianapolis, IN":1},{"Auction Location":"Casper","Auction":"IAAI","City":"Casper","State":"WY","Zip":82601,"Savannah, GA":1.15,"Newark, NJ":1.05,"Houston, TX":900,"Los Angeles, CA":950,"Indianapolis, IN":1},{"Auction Location":"Casper - WY 82604","Auction":"TRA","City":"Casper","State":"WY","Zip":82604,"Savannah, GA":1.15,"Newark, NJ":1.05,"Houston, TX":900,"Los Angeles, CA":950,"Indianapolis, IN":1},{"Auction Location":"CASPER, WY 82604","Auction":"Copart","City":"CASPER","State":"WY","Zip":82604,"Savannah, GA":1.15,"Newark, NJ":1.05,"Houston, TX":900,"Los Angeles, CA":950,"Indianapolis, IN":1},{"Auction Location":"Central California","Auction":"Manhei m","City":"Fresno","State":"CA","Zip":93706,"Savannah, GA":1.55,"Newark, NJ":1.55,"Houston, TX":950,"Los Angeles, CA":300,"Indianapolis, IN":1.35},{"Auction Location":"Central Florida","Auction":"Manhei m","City":"Orlando","State":"FL","Zip":32824,"Savannah, GA":275,"Newark, NJ":850,"Houston, TX":850,"Los Angeles, CA":1.65,"Indianapolis, IN":1.15},{"Auction Location":"Central New Jersey 07751","Auction":"IAAI","City":"Morganville","State":"NJ","Zip":7751,"Savannah, GA":650,"Newark, NJ":150,"Houston, TX":1.1,"Los Angeles, CA":1.65,"Indianapolis, IN":600},{"Auction Location":"CHAMBERSBURG 17201","Auction":"Copart","City":"CHAMBERSBU RG","State":"PA","Zip":17201,"Savannah, GA":750,"Newark, NJ":325,"Houston, TX":1.15,"Los Angeles, CA":1.65,"Indianapolis, IN":550},{"Auction Location":"Charleston 29470","Auction":"IAAI","City":"Ravenel","State":"SC","Zip":29470,"Savannah, GA":200,"Newark, NJ":500,"Houston, TX":750,"Los Angeles, CA":1.45,"Indianapolis, IN":850},{"Auction Location":"CHARLESTON/Hurri cane 25526","Auction":"Copart","City":"HURRICANE","State":"WV","Zip":25526,"Savannah, GA":650,"Newark, NJ":550,"Houston, TX":850,"Los Angeles, CA":1.65,"Indianapolis, IN":550},{"Auction Location":"Charlotte","Auction":"Manhei m","City":"Concord","State":"NC","Zip":28027,"Savannah, GA":300,"Newark, NJ":800,"Houston, TX":800,"Los Angeles, CA":1.6,"Indianapolis, IN":750},{"Auction Location":"Charlotte 28206","Auction":"IAAI","City":"Charlotte","State":"NC","Zip":"28206-\r\n1286","Savannah, GA":300,"Newark, NJ":450,"Houston, TX":850,"Los Angeles, CA":1.65,"Indianapolis, IN":800},{"Auction Location":"Charlotte 28273","Auction":"Adesa","City":"Charlotte","State":"NC","Zip":28273,"Savannah, GA":300,"Newark, NJ":450,"Houston, TX":850,"Los Angeles, CA":1.65,"Indianapolis, IN":800},{"Auction Location":"Chattanooga 37404","Auction":"IAAI","City":"Chattanooga","State":"TN","Zip":37404,"Savannah, GA":375,"Newark, NJ":650,"Houston, TX":600,"Los Angeles, CA":1.45,"Indianapolis, IN":650},{"Auction Location":"Chicago","Auction":"Manhei m","City":"Matteson","State":"IL","Zip":60443,"Savannah, GA":800,"Newark, NJ":500,"Houston, TX":850,"Los Angeles, CA":1.55,"Indianapolis, IN":200},{"Auction Location":"Chicago 60169","Auction":"Adesa","City":"Hoffman Estates","State":"IL","Zip":60169,"Savannah, GA":800,"Newark, NJ":500,"Houston, TX":850,"Los Angeles, CA":1.55,"Indianapolis, IN":200},{"Auction Location":"CHICAGO NORTH 60120","Auction":"Copart","City":"ELGIN","State":"IL","Zip":60120,"Savannah, GA":800,"Newark, NJ":500,"Houston, TX":850,"Los Angeles, CA":1.55,"Indianapolis, IN":200},{"Auction Location":"CHICAGO SOUTH 60411","Auction":"Copart","City":"CHICAGO HEIGHTS","State":"IL","Zip":60411,"Savannah, GA":800,"Newark, NJ":500,"Houston, TX":850,"Los Angeles, CA":1.55,"Indianapolis, IN":200},{"Auction Location":"Chicago-North 60118","Auction":"IAAI","City":"East Dundee","State":"IL","Zip":60118,"Savannah, GA":800,"Newark, NJ":500,"Houston, TX":850,"Los Angeles, CA":1.55,"Indianapolis, IN":200},{"Auction Location":"Chicago-South 60426","Auction":"IAAI","City":"Markham","State":"IL","Zip":60428,"Savannah, GA":800,"Newark, NJ":550,"Houston, TX":750,"Los Angeles, CA":1.55,"Indianapolis, IN":200},{"Auction Location":"Chicago-West 60505","Auction":"IAAI","City":"Aurora","State":"IL","Zip":60505,"Savannah, GA":800,"Newark, NJ":500,"Houston, TX":850,"Los Angeles, CA":1.55,"Indianapolis, IN":200},{"Auction Location":"CHINA GROVE 28023","Auction":"Copart","City":"CHINA GROVE","State":"NC","Zip":28023,"Savannah, GA":275,"Newark, NJ":450,"Houston, TX":850,"Los Angeles, CA":1.65,"Indianapolis, IN":800},{"Auction Location":"Cincinnati","Auction":"Manhei m","City":"Hamilton","State":"OH","Zip":45011,"Savannah, GA":700,"Newark, NJ":450,"Houston, TX":850,"Los Angeles, CA":1.75,"Indianapolis, IN":250},{"Auction Location":"Cincinnati 45069","Auction":"IAAI","City":"West Chester","State":"OH","Zip":45069,"Savannah, GA":700,"Newark, NJ":450,"Houston, TX":850,"Los Angeles, CA":1.75,"Indianapolis, IN":250},{"Auction Location":"Cincinnati Dayton 45005","Auction":"Adesa","City":"Franklin","State":"OH","Zip":45005,"Savannah, GA":700,"Newark, NJ":450,"Houston, TX":850,"Los Angeles, CA":1.75,"Indianapolis, IN":250},{"Auction Location":"Cincinnati-South 45102","Auction":"IAAI","City":"Amelia","State":"OH","Zip":45102,"Savannah, GA":700,"Newark, NJ":450,"Houston, TX":850,"Los Angeles, CA":1.75,"Indianapolis, IN":250},{"Auction Location":"Clearwater 33760","Auction":"IAAI","City":"Clearwater","State":"FL","Zip":33760,"Savannah, GA":300,"Newark, NJ":850,"Houston, TX":850,"Los Angeles, CA":1.65,"Indianapolis, IN":1.15},{"Auction Location":"Cleveland","Auction":"Manhei m","City":"Cleveland","State":"OH","Zip":44134,"Savannah, GA":700,"Newark, NJ":400,"Houston, TX":950,"Los Angeles, CA":1.75,"Indianapolis, IN":450},{"Auction Location":"Cleveland 44053","Auction":"IAAI","City":"Lorain","State":"OH","Zip":44053,"Savannah, GA":700,"Newark, NJ":400,"Houston, TX":950,"Los Angeles, CA":1.75,"Indianapolis, IN":400},{"Auction Location":"Cleveland 44067","Auction":"Adesa","City":"Northfield","State":"OH","Zip":44067,"Savannah, GA":700,"Newark, NJ":400,"Houston, TX":950,"Los Angeles, CA":1.75,"Indianapolis, IN":450},{"Auction Location":"CLEVELAND EAST 44067","Auction":"Copart","City":"NORTHFIELD","State":"OH","Zip":44067,"Savannah, GA":700,"Newark, NJ":400,"Houston, TX":950,"Los Angeles, CA":1.75,"Indianapolis, IN":450},{"Auction Location":"CLEVELAND WEST 44028","Auction":"Copart","City":"COLUMBIA STATION","State":"OH","Zip":44028,"Savannah, GA":700,"Newark, NJ":400,"Houston, TX":950,"Los Angeles, CA":1.75,"Indianapolis, IN":450},{"Auction Location":"CO - Denver South","Auction":"Copart","City":"LITTLETON","State":"CO","Zip":80125,"Savannah, GA":1.1,"Newark, NJ":1.05,"Houston, TX":650,"Los Angeles, CA":850,"Indianapolis, IN":650},{"Auction Location":"Colorado Springs 80817","Auction":"Adesa","City":"Fountain","State":"CO","Zip":80817,"Savannah, GA":1.1,"Newark, NJ":1.05,"Houston, TX":650,"Los Angeles, CA":850,"Indianapolis, IN":850},{"Auction Location":"COLORADO SPRINGS, CO","Auction":"Copart","City":"COLORADO SPRINGS","State":"CO","Zip":80907,"Savannah, GA":1.1,"Newark, NJ":1.05,"Houston, TX":650,"Los Angeles, CA":850,"Indianapolis, IN":850},{"Auction Location":"Colton (CA) 92324","Auction":"IAAI","City":"Colton","State":"CA","Zip":92324,"Savannah, GA":1.45,"Newark, NJ":1.55,"Houston, TX":850,"Los Angeles, CA":175,"Indianapolis, IN":1.35},{"Auction Location":"COLUMBIA MO 65201","Auction":"Copart","City":"COLUMBIA","State":"MO","Zip":65201,"Savannah, GA":650,"Newark, NJ":700,"Houston, TX":400,"Los Angeles, CA":1.35,"Indianapolis, IN":450},{"Auction Location":"COLUMBIA SC 29053","Auction":"Copart","City":"GASTON","State":"SC","Zip":29053,"Savannah, GA":225,"Newark, NJ":500,"Houston, TX":750,"Los Angeles, CA":1.45,"Indianapolis, IN":800},{"Auction Location":"Columbia, SC 29209","Auction":"IAAI","City":"Columbia","State":"SC","Zip":29209,"Savannah, GA":225,"Newark, NJ":500,"Houston, TX":750,"Los Angeles, CA":1.45,"Indianapolis, IN":800},{"Auction Location":"Columbia-29073","Auction":"TRA","City":"Lexington","State":"SC","Zip":29073,"Savannah, GA":225,"Newark, NJ":500,"Houston, TX":750,"Los Angeles, CA":1.45,"Indianapolis, IN":800},{"Auction Location":"COLUMBUS 43207","Auction":"Copart","City":"COLUMBUS","State":"OH","Zip":43207,"Savannah, GA":700,"Newark, NJ":400,"Houston, TX":850,"Los Angeles, CA":1.75,"Indianapolis, IN":250},{"Auction Location":"Columbus OH 43123","Auction":"IAAI","City":"Grove City","State":"OH","Zip":43123,"Savannah, GA":700,"Newark, NJ":400,"Houston, TX":850,"Los Angeles, CA":1.75,"Indianapolis, IN":250},{"Auction Location":"Concord 01720","Auction":"Adesa","City":"Acton","State":"MA","Zip":1720,"Savannah, GA":850,"Newark, NJ":350,"Houston, TX":1.25,"Los Angeles, CA":1.85,"Indianapolis, IN":750},{"Auction Location":"Concord 28025","Auction":"IAAI","City":"Concord","State":"NC","Zip":28025,"Savannah, GA":300,"Newark, NJ":450,"Houston, TX":850,"Los Angeles, CA":1.65,"Indianapolis, IN":800},{"Auction Location":"Corpus Christi 78405","Auction":"IAAI","City":"Corpus Christi","State":"TX","Zip":78405,"Savannah, GA":750,"Newark, NJ":1.2,"Houston, TX":250,"Los Angeles, CA":950,"Indianapolis, IN":950},{"Auction Location":"CORPUS CHRISTI, TX 78405","Auction":"Copart","City":"CORPUS CHRISTI","State":"TX","Zip":78405,"Savannah, GA":750,"Newark, NJ":1.2,"Houston, TX":250,"Los Angeles, CA":950,"Indianapolis, IN":950},{"Auction Location":"CRASHEDTOYS ATLANTA 30344","Auction":"Copart","City":"EAST POINT","State":"GA","Zip":30344,"Savannah, GA":275,"Newark, NJ":800,"Houston, TX":800,"Los Angeles, CA":1.6,"Indianapolis, IN":750},{"Auction Location":"CRASHEDTOYS DALLAS","Auction":"Copart","City":"DALLAS","State":"TX","Zip":75247,"Savannah, GA":750,"Newark, NJ":950,"Houston, TX":250,"Los Angeles, CA":950,"Indianapolis, IN":800},{"Auction Location":"CRASHEDTOYS EAST BETHEL, MN 55011","Auction":"Copart","City":"EAST BETHEL","State":"MN","Zip":55011,"Savannah, GA":1.1,"Newark, NJ":800,"Houston, TX":1.25,"Los Angeles, CA":1.95,"Indianapolis, IN":400},{"Auction Location":"CRASHEDTOYS MINNEAPOLIS 55434","Auction":"Copart","City":"BLAINE","State":"MN","Zip":55434,"Savannah, GA":1.15,"Newark, NJ":850,"Houston, TX":1.25,"Los Angeles, CA":1.95,"Indianapolis, IN":450},{"Auction Location":"CRASHEDTOYS SACRAMENTO, CA 95828","Auction":"Copart","City":"SACRAMENTO","State":"CA","Zip":95828,"Savannah, GA":1.55,"Newark, NJ":1.55,"Houston, TX":950,"Los Angeles, CA":325,"Indianapolis, IN":1.35},{"Auction Location":"Culpeper, VA 22701","Auction":"IAAI","City":"Culpeper","State":"VA","Zip":22701,"Savannah, GA":550,"Newark, NJ":390,"Houston, TX":850,"Los Angeles, CA":1.65,"Indianapolis, IN":650},{"Auction Location":"Dallas","Auction":"Manhei m","City":"Dallas","State":"TX","Zip":75236,"Savannah, GA":750,"Newark, NJ":950,"Houston, TX":250,"Los Angeles, CA":950,"Indianapolis, IN":800},{"Auction Location":"Dallas 75141","Auction":"Adesa","City":"Hutchins","State":"TX","Zip":75141,"Savannah, GA":750,"Newark, NJ":950,"Houston, TX":250,"Los Angeles, CA":950,"Indianapolis, IN":800},{"Auction Location":"Dallas 75172","Auction":"IAAI","City":"Wilmer","State":"TX","Zip":75172,"Savannah, GA":750,"Newark, NJ":950,"Houston, TX":250,"Los Angeles, CA":950,"Indianapolis, IN":800},{"Auction Location":"DALLAS SOUTH 75172","Auction":"Copart","City":"WILMER","State":"TX","Zip":75172,"Savannah, GA":750,"Newark, NJ":950,"Houston, TX":250,"Los Angeles, CA":950,"Indianapolis, IN":800},{"Auction Location":"DALLAS, TX 75051","Auction":"Copart","City":"GRAND PRAIRIE","State":"TX","Zip":75051,"Savannah, GA":750,"Newark, NJ":950,"Houston, TX":250,"Los Angeles, CA":950,"Indianapolis, IN":800},{"Auction Location":"Dallas/Ft. Worth 75050","Auction":"IAAI","City":"Grand Prairie","State":"TX","Zip":"75050-\r\n4606","Savannah, GA":750,"Newark, NJ":950,"Houston, TX":250,"Los Angeles, CA":950,"Indianapolis, IN":800},{"Auction Location":"Dallas-Ft Worth","Auction":"Manhei m","City":"Euless","State":"TX","Zip":76040,"Savannah, GA":750,"Newark, NJ":950,"Houston, TX":250,"Los Angeles, CA":950,"Indianapolis, IN":800},{"Auction Location":"DANVILLE 24531","Auction":"Copart","City":"CHATHAM","State":"VA","Zip":24531,"Savannah, GA":550,"Newark, NJ":390,"Houston, TX":850,"Los Angeles, CA":1.65,"Indianapolis, IN":650},{"Auction Location":"Darlington","Auction":"Manhei m","City":"Darlington","State":"SC","Zip":29532,"Savannah, GA":250,"Newark, NJ":500,"Houston, TX":750,"Los Angeles, CA":1.45,"Indianapolis, IN":800},{"Auction Location":"Davenport 52802","Auction":"IAAI","City":"Davenport","State":"IA","Zip":52802,"Savannah, GA":1.1,"Newark, NJ":600,"Houston, TX":850,"Los Angeles, CA":1.45,"Indianapolis, IN":400},{"Auction Location":"Dayton 45427","Auction":"IAAI","City":"Dayton","State":"OH","Zip":45417,"Savannah, GA":700,"Newark, NJ":400,"Houston, TX":850,"Los Angeles, CA":1.75,"Indianapolis, IN":250},{"Auction Location":"DAYTON, OH 45439","Auction":"Copart","City":"Moraine","State":"OH","Zip":45439,"Savannah, GA":700,"Newark, NJ":400,"Houston, TX":850,"Los Angeles, CA":1.75,"Indianapolis, IN":250},{"Auction Location":"Daytona Beach","Auction":"Manhei m","City":"Daytona Beach","State":"FL","Zip":32124,"Savannah, GA":300,"Newark, NJ":850,"Houston, TX":850,"Los Angeles, CA":1.65,"Indianapolis, IN":1.15},{"Auction Location":"Denver","Auction":"Manhei m","City":"Aurora","State":"CO","Zip":80011,"Savannah, GA":1.1,"Newark, NJ":1.05,"Houston, TX":650,"Los Angeles, CA":850,"Indianapolis, IN":850},{"Auction Location":"Denver 80221","Auction":"IAAI","City":"Denver","State":"CO","Zip":80221,"Savannah, GA":1.1,"Newark, NJ":1.05,"Houston, TX":650,"Los Angeles, CA":850,"Indianapolis, IN":850},{"Auction Location":"DENVER CENTRAL, CO 80229","Auction":"Copart","City":"DENVER","State":"CO","Zip":80229,"Savannah, GA":1.1,"Newark, NJ":1.05,"Houston, TX":650,"Los Angeles, CA":850,"Indianapolis, IN":850},{"Auction Location":"Denver East (CO) 80022","Auction":"IAAI","City":"Commerce City","State":"CO","Zip":80022,"Savannah, GA":1.1,"Newark, NJ":1.05,"Houston, TX":650,"Los Angeles, CA":850,"Indianapolis, IN":850},{"Auction Location":"DENVER SOUTH, CO 80125","Auction":"Copart","City":"LITTLETON","State":"CO","Zip":80125,"Savannah, GA":1.1,"Newark, NJ":1.05,"Houston, TX":650,"Los Angeles, CA":850,"Indianapolis, IN":650},{"Auction Location":"DENVER/Brighton 80603","Auction":"Copart","City":"BRIGHTON","State":"CO","Zip":80603,"Savannah, GA":1.1,"Newark, NJ":1.05,"Houston, TX":650,"Los Angeles, CA":850,"Indianapolis, IN":650},{"Auction Location":"Des Moines 50069","Auction":"IAAI","City":"De Soto","State":"IA","Zip":50069,"Savannah, GA":1.1,"Newark, NJ":600,"Houston, TX":850,"Los Angeles, CA":1.45,"Indianapolis, IN":450},{"Auction Location":"Des Moines 50111","Auction":"Adesa","City":"Grimes","State":"IA","Zip":50111,"Savannah, GA":1.1,"Newark, NJ":600,"Houston, TX":850,"Los Angeles, CA":1.45,"Indianapolis, IN":450},{"Auction Location":"DES MOINES 50317","Auction":"Copart","City":"DES MOINES","State":"IA","Zip":50317,"Savannah, GA":1.1,"Newark, NJ":600,"Houston, TX":850,"Los Angeles, CA":1.45,"Indianapolis, IN":450},{"Auction Location":"Des Moines Auto Auction","Auction":"Manhei m","City":"Des Moines","State":"IA","Zip":50320,"Savannah, GA":1.1,"Newark, NJ":600,"Houston, TX":850,"Los Angeles, CA":1.45,"Indianapolis, IN":450},{"Auction Location":"Detriot","Auction":"TRA","City":"Belleville","State":"MI","Zip":48111,"Savannah, GA":750,"Newark, NJ":450,"Houston, TX":950,"Los Angeles, CA":1.95,"Indianapolis, IN":425},{"Auction Location":"Detroit","Auction":"Manhei m","City":"Carleton","State":"MI","Zip":48117,"Savannah, GA":750,"Newark, NJ":450,"Houston, TX":950,"Los Angeles, CA":1.95,"Indianapolis, IN":400},{"Auction Location":"Detroit 48111","Auction":"IAAI","City":"Belleville","State":"MI","Zip":48111,"Savannah, GA":750,"Newark, NJ":450,"Houston, TX":950,"Los Angeles, CA":1.95,"Indianapolis, IN":425},{"Auction Location":"DETROIT 48183","Auction":"Copart","City":"WOODHAVEN","State":"MI","Zip":48183,"Savannah, GA":750,"Newark, NJ":450,"Houston, TX":950,"Los Angeles, CA":1.95,"Indianapolis, IN":450},{"Auction Location":"Dothan 36345","Auction":"IAAI","City":"Headland","State":"AL","Zip":"36345-\r\n8203","Savannah, GA":325,"Newark, NJ":750,"Houston, TX":600,"Los Angeles, CA":1.45,"Indianapolis, IN":800},{"Auction Location":"Dundalk (MD)","Auction":"Adesa","City":"Dundalk","State":"MD","Zip":21222,"Savannah, GA":650,"Newark, NJ":300,"Houston, TX":950,"Los Angeles, CA":1.65,"Indianapolis, IN":650},{"Auction Location":"Dundalk (MD) 21222","Auction":"IAAI","City":"Dundalk","State":"MD","Zip":21222,"Savannah, GA":650,"Newark, NJ":300,"Houston, TX":950,"Los Angeles, CA":1.65,"Indianapolis, IN":650},{"Auction Location":"East Bay 94565","Auction":"IAAI","City":"Bay Point","State":"CA","Zip":94565,"Savannah, GA":1.55,"Newark, NJ":1.55,"Houston, TX":950,"Los Angeles, CA":325,"Indianapolis, IN":1.35},{"Auction Location":"East Tennessee 37656","Auction":"Adesa","City":"Fall Branch","State":"TN","Zip":37656,"Savannah, GA":375,"Newark, NJ":650,"Houston, TX":600,"Los Angeles, CA":1.45,"Indianapolis, IN":650},{"Auction Location":"El Paso","Auction":"Manhei m","City":"El Paso","State":"TX","Zip":79932,"Savannah, GA":950,"Newark, NJ":1.35,"Houston, TX":450,"Los Angeles, CA":650,"Indianapolis, IN":1.25},{"Auction Location":"El Paso 79927","Auction":"IAAI","City":"El Paso","State":"TX","Zip":79927,"Savannah, GA":950,"Newark, NJ":1.35,"Houston, TX":450,"Los Angeles, CA":650,"Indianapolis, IN":1.25},{"Auction Location":"EL PASO, TX 79821","Auction":"Copart","City":"Anthony","State":"TX","Zip":79821,"Savannah, GA":950,"Newark, NJ":1.35,"Houston, TX":450,"Los Angeles, CA":650,"Indianapolis, IN":1.25},{"Auction Location":"Erie 16416","Auction":"IAAI","City":"Garland","State":"PA","Zip":16416,"Savannah, GA":950,"Newark, NJ":475,"Houston, TX":1.35,"Los Angeles, CA":1.65,"Indianapolis, IN":450},{"Auction Location":"Eugene 97402","Auction":"IAAI","City":"Eugene","State":"OR","Zip":"97402-\r\n2002","Savannah, GA":1.75,"Newark, NJ":1.55,"Houston, TX":1.15,"Los Angeles, CA":525,"Indianapolis, IN":1.35},{"Auction Location":"EUGENE 97402","Auction":"Copart","City":"EUGENE","State":"OR","Zip":97402,"Savannah, GA":1.75,"Newark, NJ":1.55,"Houston, TX":1.15,"Los Angeles, CA":520,"Indianapolis, IN":1.35},{"Auction Location":"EXETER, RI 02822","Auction":"Copart","City":"EXETER","State":"RI","Zip":2822,"Savannah, GA":900,"Newark, NJ":350,"Houston, TX":1.25,"Los Angeles, CA":1.85,"Indianapolis, IN":750},{"Auction Location":"Fargo 58078","Auction":"Adesa","City":"West Fargo","State":"ND","Zip":58078,"Savannah, GA":1.35,"Newark, NJ":1.15,"Houston, TX":1.35,"Los Angeles, CA":1.25,"Indianapolis, IN":950},{"Auction Location":"Fargo 58102","Auction":"IAAI","City":"Fargo","State":"ND","Zip":58102,"Savannah, GA":1.35,"Newark, NJ":1.15,"Houston, TX":1.35,"Los Angeles, CA":1.25,"Indianapolis, IN":950},{"Auction Location":"Fayetteville 72744","Auction":"IAAI","City":"Lincoln","State":"AR","Zip":72744,"Savannah, GA":750,"Newark, NJ":900,"Houston, TX":400,"Los Angeles, CA":1.05,"Indianapolis, IN":600},{"Auction Location":"FAYETTEVILLE 72753","Auction":"Copart","City":"PRAIRIE GROVE","State":"AR","Zip":72753,"Savannah, GA":750,"Newark, NJ":900,"Houston, TX":400,"Los Angeles, CA":1.05,"Indianapolis, IN":600},{"Auction Location":"Flint","Auction":"Adesa","City":"Flint","State":"MI","Zip":48506,"Savannah, GA":750,"Newark, NJ":500,"Houston, TX":950,"Los Angeles, CA":1.95,"Indianapolis, IN":450},{"Auction Location":"Flint","Auction":"Manhei m","City":"Flint","State":"MI","Zip":48507,"Savannah, GA":750,"Newark, NJ":500,"Houston, TX":950,"Los Angeles, CA":1.95,"Indianapolis, IN":450},{"Auction Location":"Flint","Auction":"TRA","City":"Flint","State":"MI","Zip":48507,"Savannah, GA":750,"Newark, NJ":500,"Houston, TX":950,"Los Angeles, CA":1.95,"Indianapolis, IN":450},{"Auction Location":"FLINT 48423","Auction":"Copart","City":"Davison","State":"MI","Zip":48423,"Savannah, GA":750,"Newark, NJ":500,"Houston, TX":950,"Los Angeles, CA":1.95,"Indianapolis, IN":450},{"Auction Location":"Flint MI 48507","Auction":"IAAI","City":"Flint","State":"MI","Zip":48507,"Savannah, GA":750,"Newark, NJ":500,"Houston, TX":950,"Los Angeles, CA":1.95,"Indianapolis, IN":450},{"Auction Location":"Fontana 92335","Auction":"IAAI","City":"Fontana","State":"CA","Zip":"92335-\r\n5241","Savannah, GA":1.45,"Newark, NJ":1.55,"Houston, TX":850,"Los Angeles, CA":150,"Indianapolis, IN":1.35},{"Auction Location":"Fort Lauderdale","Auction":"Manhei m","City":"Davie","State":"FL","Zip":33314,"Savannah, GA":350,"Newark, NJ":900,"Houston, TX":900,"Los Angeles, CA":1.7,"Indianapolis, IN":1.25},{"Auction Location":"Fort Myers","Auction":"Manhei m","City":"Ft. Myers","State":"FL","Zip":33916,"Savannah, GA":350,"Newark, NJ":900,"Houston, TX":900,"Los Angeles, CA":1.7,"Indianapolis, IN":1.25},{"Auction Location":"Fort Myers (FL) 33903","Auction":"IAAI","City":"North Fort Myers","State":"FL","Zip":33903,"Savannah, GA":350,"Newark, NJ":900,"Houston, TX":900,"Los Angeles, CA":1.7,"Indianapolis, IN":1.25},{"Auction Location":"Fort Pierce, FL 34945","Auction":"IAAI","City":"Fort Pierce","State":"FL","Zip":34945,"Savannah, GA":325,"Newark, NJ":850,"Houston, TX":850,"Los Angeles, CA":1.65,"Indianapolis, IN":1.25},{"Auction Location":"FORT WAYNE 47348","Auction":"Copart","City":"HARTFORD CITY","State":"IN","Zip":47348,"Savannah, GA":800,"Newark, NJ":550,"Houston, TX":1.05,"Los Angeles, CA":1.95,"Indianapolis, IN":200},{"Auction Location":"Fort Worth North (TX) 76247","Auction":"IAAI","City":"JUSTIN","State":"TX","Zip":76247,"Houston, TX":300},{"Auction Location":"Fredericksburg","Auction":"Manhei m","City":"Fredericksburg","State":"VA","Zip":22406,"Savannah, GA":600,"Newark, NJ":390,"Houston, TX":950,"Los Angeles, CA":1.65,"Indianapolis, IN":650},{"Auction Location":"FREDERICKSBURG (VA) 22408","Auction":"Copart","City":"FREDERICKSB URG","State":"VA","Zip":22408,"Savannah, GA":600,"Newark, NJ":390,"Houston, TX":950,"Los Angeles, CA":1.65,"Indianapolis, IN":650},{"Auction Location":"Fredericksgburg South 22408","Auction":"IAAI","City":"Fredericksburg","State":"VA","Zip":22408,"Savannah, GA":600,"Newark, NJ":390,"Houston, TX":950,"Los Angeles, CA":1.65,"Indianapolis, IN":650},{"Auction Location":"Fremont 94538","Auction":"IAAI","City":"Fremont","State":"CA","Zip":94538,"Savannah, GA":1.55,"Newark, NJ":1.55,"Houston, TX":950,"Los Angeles, CA":325,"Indianapolis, IN":1.35},{"Auction Location":"Fresno","Auction":"Adesa","City":"Fresno","State":"CA","Zip":93725,"Savannah, GA":1.55,"Newark, NJ":1.55,"Houston, TX":950,"Los Angeles, CA":300,"Indianapolis, IN":1.35},{"Auction Location":"Fresno 93705","Auction":"IAAI","City":"Fresno","State":"CA","Zip":93705,"Savannah, GA":1.55,"Newark, NJ":1.55,"Houston, TX":950,"Los Angeles, CA":300,"Indianapolis, IN":1.35},{"Auction Location":"FRESNO 93725","Auction":"Copart","City":"FRESNO","State":"CA","Zip":93725,"Savannah, GA":1.55,"Newark, NJ":1.55,"Houston, TX":950,"Los Angeles, CA":300,"Indianapolis, IN":1.35},{"Auction Location":"FT. PIERCE 34946","Auction":"Copart","City":"FORT PIERCE","State":"FL","Zip":34946,"Savannah, GA":325,"Newark, NJ":850,"Houston, TX":850,"Los Angeles, CA":1.65,"Indianapolis, IN":1.25},{"Auction Location":"FT. WORTH, TX 76052","Auction":"Copart","City":"HASLET","State":"TX","Zip":76052,"Savannah, GA":750,"Newark, NJ":950,"Houston, TX":250,"Los Angeles, CA":950,"Indianapolis, IN":800},{"Auction Location":"Gateway St. Louis","Auction":"Manhei m","City":"Belleville","State":"IL","Zip":62221,"Savannah, GA":700,"Newark, NJ":550,"Houston, TX":750,"Los Angeles, CA":1.55,"Indianapolis, IN":250},{"Auction Location":"Georgia","Auction":"Manhei m","City":"Atlanta","State":"GA","Zip":30331,"Savannah, GA":250,"Newark, NJ":800,"Houston, TX":800,"Los Angeles, CA":1.6,"Indianapolis, IN":750},{"Auction Location":"GLASSBORO EAST 08028","Auction":"Copart","City":"GLASSBORO","State":"NJ","Zip":8028,"Savannah, GA":650,"Newark, NJ":175,"Houston, TX":1.15,"Los Angeles, CA":1.65,"Indianapolis, IN":650},{"Auction Location":"Golden Gate CA 95377","Auction":"Adesa","City":"Tracy","State":"CA","Zip":95377,"Savannah, GA":1.55,"Newark, NJ":1.55,"Houston, TX":950,"Los Angeles, CA":325,"Indianapolis, IN":1.35},{"Auction Location":"GRAHAM 98338","Auction":"Copart","City":"GRAHAM","State":"WA","Zip":98338,"Savannah, GA":1.95,"Newark, NJ":1.55,"Houston, TX":1.35,"Los Angeles, CA":650,"Indianapolis, IN":1.15},{"Auction Location":"Grand Rapids 49315","Auction":"IAAI","City":"Byron Center","State":"MI","Zip":49315,"Savannah, GA":800,"Newark, NJ":550,"Houston, TX":1.05,"Los Angeles, CA":1.95,"Indianapolis, IN":450},{"Auction Location":"Great Lakes 48708","Auction":"Adesa","City":"Bay City","State":"MI","Zip":48708,"Savannah, GA":800,"Newark, NJ":575,"Houston, TX":950,"Los Angeles, CA":1.95,"Indianapolis, IN":575},{"Auction Location":"Greensboro 27253","Auction":"IAAI","City":"Graham","State":"NC","Zip":"27253-\r\n9468","Savannah, GA":300,"Newark, NJ":450,"Houston, TX":850,"Los Angeles, CA":1.65,"Indianapolis, IN":800},{"Auction Location":"Greenville 29681","Auction":"IAAI","City":"Simpsonville","State":"SC","Zip":29681,"Savannah, GA":250,"Newark, NJ":500,"Houston, TX":850,"Los Angeles, CA":1.45,"Indianapolis, IN":750},{"Auction Location":"Greer","Auction":"Manhei m","City":"Greer","State":"SC","Zip":29651,"Savannah, GA":250,"Newark, NJ":500,"Houston, TX":850,"Los Angeles, CA":1.45,"Indianapolis, IN":750},{"Auction Location":"Grenada (MS) 38901","Auction":"IAAI","City":"Grenada","State":"MS","Zip":38901,"Savannah, GA":500,"Newark, NJ":800,"Houston, TX":450,"Los Angeles, CA":1.15,"Indianapolis, IN":800},{"Auction Location":"Gulf Coast (MS) 39562","Auction":"IAAI","City":"Moss Point","State":"MS","Zip":39562,"Savannah, GA":400,"Newark, NJ":850,"Houston, TX":425,"Los Angeles, CA":1.15,"Indianapolis, IN":800},{"Auction Location":"HAMMOND 46320","Auction":"Copart","City":"HAMMOND","State":"IN","Zip":46320,"Savannah, GA":800,"Newark, NJ":500,"Houston, TX":850,"Los Angeles, CA":1.55,"Indianapolis, IN":200},{"Auction Location":"HAMPTON,VA 23666","Auction":"Copart","City":"HAMPTON","State":"VA","Zip":23666,"Savannah, GA":550,"Newark, NJ":390,"Houston, TX":850,"Los Angeles, CA":1.65,"Indianapolis, IN":650},{"Auction Location":"HARRISBURG 17028","Auction":"Copart","City":"GRANTVILLE","State":"PA","Zip":17028,"Savannah, GA":750,"Newark, NJ":250,"Houston, TX":1.15,"Los Angeles, CA":1.65,"Indianapolis, IN":550},{"Auction Location":"Harrisonburg","Auction":"Manhei m","City":"Harrisonburg","State":"VA","Zip":22801,"Savannah, GA":550,"Newark, NJ":400,"Houston, TX":850,"Los Angeles, CA":1.65,"Indianapolis, IN":650},{"Auction Location":"HARTFORD 06051","Auction":"Copart","City":"NEW BRITAIN","State":"CT","Zip":6051,"Savannah, GA":750,"Newark, NJ":225,"Houston, TX":1.25,"Los Angeles, CA":1.75,"Indianapolis, IN":750},{"Auction Location":"Hartford 06088","Auction":"IAAI","City":"East Windsor","State":"CT","Zip":6088,"Savannah, GA":750,"Newark, NJ":225,"Houston, TX":1.25,"Los Angeles, CA":1.75,"Indianapolis, IN":750},{"Auction Location":"Hartford-South 06457","Auction":"IAAI","City":"Middletown","State":"CT","Zip":6457,"Savannah, GA":750,"Newark, NJ":225,"Houston, TX":1.25,"Los Angeles, CA":1.75,"Indianapolis, IN":750},{"Auction Location":"Hawaii","Auction":"Manhei m","City":"Honolulu","State":"HI","Zip":96819,"Savannah, GA":3.45,"Newark, NJ":3.45,"Houston, TX":2.85,"Los Angeles, CA":1.8,"Indianapolis, IN":3.45},{"Auction Location":"Hawaii","Auction":"Manhei m","City":"Kailua-Kona","Savannah, GA":4.15,"Newark, NJ":5.15,"Houston, TX":3.55,"Los Angeles, CA":2.5,"Indianapolis, IN":4.95},{"Auction Location":"Hawaii","Auction":"Manhei m","City":"Lihue","Savannah, GA":4.5,"Newark, NJ":5.5,"Houston, TX":3.9,"Los Angeles, CA":2.85,"Indianapolis, IN":5.3},{"Auction Location":"Hawaii","Auction":"Manhei m","City":"Maui","Savannah, GA":3.75,"Newark, NJ":4.75,"Houston, TX":3.15,"Los Angeles, CA":2.1,"Indianapolis, IN":4.55},{"Auction Location":"HAYWARD - DESERT VIEW","Auction":"Copart","City":"HAYWARD","State":"CA","Zip":94545,"Savannah, GA":1.55,"Newark, NJ":1.55,"Houston, TX":950,"Los Angeles, CA":300,"Indianapolis, IN":1.35},{"Auction Location":"HAYWARD 94545","Auction":"Copart","City":"HAYWARD","State":"CA","Zip":94545,"Savannah, GA":1.55,"Newark, NJ":1.55,"Houston, TX":950,"Los Angeles, CA":325,"Indianapolis, IN":1.35},{"Auction Location":"HELENA 59601","Auction":"Copart","City":"HELENA","State":"MT","Zip":59601,"Savannah, GA":1.65,"Newark, NJ":1.35,"Houston, TX":1.35,"Los Angeles, CA":1.05,"Indianapolis, IN":1.1},{"Auction Location":"High Desert 92345","Auction":"IAAI","City":"Hesperia","State":"CA","Zip":92345,"Savannah, GA":1.45,"Newark, NJ":1.55,"Houston, TX":850,"Los Angeles, CA":200,"Indianapolis, IN":1.35},{"Auction Location":"HONOLULU ( LIHUE) 96707","Auction":"Copart","City":"LIHUE","Savannah, GA":4.5,"Newark, NJ":5.5,"Houston, TX":3.9,"Los Angeles, CA":2.85,"Indianapolis, IN":5.3},{"Auction Location":"Honolulu (Kailua- Kona Hawaii island) 96707","Auction":"IAAI","City":"Kailua-Kona Hawaii island","State":"HI","Savannah, GA":4.15,"Newark, NJ":5.15,"Houston, TX":3.55,"Los Angeles, CA":2.5,"Indianapolis, IN":4.95},{"Auction Location":"HONOLULU (KAILUA-KONA) 96707","Auction":"Copart","City":"KAILUA-KONA","Savannah, GA":4.15,"Newark, NJ":5.15,"Houston, TX":3.55,"Los Angeles, CA":2.5,"Indianapolis, IN":4.95},{"Auction Location":"Honolulu (Kapolei Oahu island) 96707","Auction":"IAAI","City":"Kapolei Oahu island","State":"HI","Zip":"96707-\r\n1715","Savannah, GA":3.45,"Newark, NJ":4.45,"Houston, TX":2.85,"Los Angeles, CA":1.8,"Indianapolis, IN":4.25},{"Auction Location":"HONOLULU (KAPOLEI) 96707","Auction":"Copart","City":"KAPOLEI","State":"HI","Zip":96707,"Savannah, GA":3.45,"Newark, NJ":4.45,"Houston, TX":2.85,"Los Angeles, CA":1.8,"Indianapolis, IN":4.25},{"Auction Location":"Honolulu (Lihue Kauai island) 96707","Auction":"IAAI","City":"Lihue Kauai island","State":"HI","Savannah, GA":4.5,"Newark, NJ":5.5,"Houston, TX":3.9,"Los Angeles, CA":2.85,"Indianapolis, IN":5.3},{"Auction Location":"Honolulu (Maui Maui Island) 96707","Auction":"IAAI","City":"Maui Maui Island","State":"HI","Savannah, GA":3.75,"Newark, NJ":4.75,"Houston, TX":3.15,"Los Angeles, CA":2.1,"Indianapolis, IN":4.55},{"Auction Location":"HONOLULU (MAUI) 96707","Auction":"Copart","City":"MAUI","Savannah, GA":3.75,"Newark, NJ":4.75,"Houston, TX":3.15,"Los Angeles, CA":2.1,"Indianapolis, IN":4.55},{"Auction Location":"Houston","Auction":"Manhei m","City":"Houston","State":"TX","Zip":77041,"Savannah, GA":600,"Newark, NJ":950,"Houston, TX":125,"Los Angeles, CA":850,"Indianapolis, IN":850},{"Auction Location":"Houston 77038","Auction":"IAAI","City":"Houston","State":"TX","Zip":"77038-\r\n3532","Savannah, GA":600,"Newark, NJ":950,"Houston, TX":125,"Los Angeles, CA":850,"Indianapolis, IN":850},{"Auction Location":"HOUSTON 77073","Auction":"Copart","City":"HOUSTON","State":"TX","Zip":77073,"Savannah, GA":600,"Newark, NJ":950,"Houston, TX":125,"Los Angeles, CA":850,"Indianapolis, IN":850},{"Auction Location":"Houston 77086","Auction":"Adesa","City":"Houston","State":"TX","Zip":77086,"Savannah, GA":600,"Newark, NJ":950,"Houston, TX":125,"Los Angeles, CA":850,"Indianapolis, IN":850},{"Auction Location":"Houston South 77583","Auction":"IAAI","City":"Rosharon","State":"TX","Zip":77583,"Savannah, GA":600,"Newark, NJ":950,"Houston, TX":125,"Los Angeles, CA":850,"Indianapolis, IN":850},{"Auction Location":"Houston-North 77032","Auction":"IAAI","City":"Houston","State":"TX","Zip":77032,"Savannah, GA":600,"Newark, NJ":950,"Houston, TX":125,"Los Angeles, CA":850,"Indianapolis, IN":850},{"Auction Location":"Huntsville 35613","Auction":"IAAI","City":"Athens","State":"AL","Zip":"35613-\r\n6751","Savannah, GA":350,"Newark, NJ":650,"Houston, TX":650,"Los Angeles, CA":1.45,"Indianapolis, IN":800},{"Auction Location":"IA - CRASHEDTOYS ELDRIDGE","Auction":"Copart","City":"ELDRIDGE","State":"IA","Zip":52748,"Savannah, GA":1.1,"Newark, NJ":600,"Houston, TX":850,"Los Angeles, CA":1.45,"Indianapolis, IN":450},{"Auction Location":"IA - DAVENPORT","Auction":"Copart","City":"ELDRIDGE","State":"IA","Zip":52748,"Savannah, GA":1.1,"Newark, NJ":600,"Houston, TX":850,"Los Angeles, CA":1.45,"Indianapolis, IN":450},{"Auction Location":"Indianapolis","Auction":"Manhei m","City":"Indianapolis","State":"IN","Zip":46239,"Savannah, GA":700,"Newark, NJ":450,"Houston, TX":850,"Los Angeles, CA":1.65,"Indianapolis, IN":125},{"Auction Location":"Indianapolis 46168","Auction":"Adesa","City":"Plainfield","State":"IN","Zip":46168,"Savannah, GA":700,"Newark, NJ":450,"Houston, TX":850,"Los Angeles, CA":1.65,"Indianapolis, IN":125},{"Auction Location":"Indianapolis 46217","Auction":"IAAI","City":"Indianapolis","State":"IN","Zip":46217,"Savannah, GA":700,"Newark, NJ":450,"Houston, TX":850,"Los Angeles, CA":1.65,"Indianapolis, IN":125},{"Auction Location":"INDIANAPOLIS 46254","Auction":"Copart","City":"INDIANAPOLIS","State":"IN","Zip":46254,"Savannah, GA":700,"Newark, NJ":450,"Houston, TX":850,"Los Angeles, CA":1.65,"Indianapolis, IN":125},{"Auction Location":"IONIA, MI 48875","Auction":"Copart","City":"PORTLAND","State":"MI","Zip":48875,"Savannah, GA":750,"Newark, NJ":510,"Houston, TX":950,"Los Angeles, CA":1.95,"Indianapolis, IN":450},{"Auction Location":"JACKSON 39073","Auction":"Copart","City":"FLORENCE","State":"MS","Zip":39073,"Savannah, GA":450,"Newark, NJ":800,"Houston, TX":425,"Los Angeles, CA":1.15,"Indianapolis, IN":800},{"Auction Location":"Jackson 39206","Auction":"IAAI","City":"Jackson","State":"MS","Zip":"39206-\r\n2919","Savannah, GA":450,"Newark, NJ":800,"Houston, TX":425,"Los Angeles, CA":1.15,"Indianapolis, IN":800},{"Auction Location":"Jacksonville","Auction":"Manhei m","City":"Jacksonville","State":"FL","Zip":32219,"Savannah, GA":200,"Newark, NJ":750,"Houston, TX":650,"Los Angeles, CA":1.45,"Indianapolis, IN":1.05},{"Auction Location":"Jacksonville 32219","Auction":"Adesa","City":"Jacksonville","State":"FL","Zip":32219,"Savannah, GA":200,"Newark, NJ":750,"Houston, TX":650,"Los Angeles, CA":1.45,"Indianapolis, IN":1.05},{"Auction Location":"Jacksonville 32219","Auction":"IAAI","City":"Jacksonville","State":"FL","Zip":"32219-\r\n1229","Savannah, GA":200,"Newark, NJ":750,"Houston, TX":650,"Los Angeles, CA":1.45,"Indianapolis, IN":1.05},{"Auction Location":"JACKSONVILLE EAST 32209","Auction":"Copart","City":"JACKSONVILLE","State":"FL","Zip":32209,"Savannah, GA":200,"Newark, NJ":750,"Houston, TX":650,"Los Angeles, CA":1.45,"Indianapolis, IN":1.05},{"Auction Location":"JACKSONVILLE WEST 32220","Auction":"Copart","City":"JACKSONVILLE","State":"FL","Zip":32220,"Savannah, GA":200,"Newark, NJ":750,"Houston, TX":650,"Los Angeles, CA":1.45,"Indianapolis, IN":1.05},{"Auction Location":"Kansas City","Auction":"Manhei m","City":"Kansas City","State":"MO","Zip":64161,"Savannah, GA":700,"Newark, NJ":700,"Houston, TX":450,"Los Angeles, CA":1.35,"Indianapolis, IN":400},{"Auction Location":"Kansas City (MO) 64012","Auction":"Adesa","City":"Belton","State":"MO","Zip":64012,"Savannah, GA":700,"Newark, NJ":700,"Houston, TX":450,"Los Angeles, CA":1.35,"Indianapolis, IN":400},{"Auction Location":"Kansas City 66111","Auction":"IAAI","City":"Kansas City","State":"KS","Zip":66111,"Savannah, GA":700,"Newark, NJ":700,"Houston, TX":500,"Los Angeles, CA":1.35,"Indianapolis, IN":500},{"Auction Location":"KANSAS CITY 66111","Auction":"Copart","City":"KANSAS CITY","State":"KS","Zip":66111,"Savannah, GA":700,"Newark, NJ":700,"Houston, TX":500,"Los Angeles, CA":1.35,"Indianapolis, IN":500},{"Auction Location":"Kansas City-64161","Auction":"TRA","City":"Kansas City","State":"MO","Zip":64161,"Savannah, GA":700,"Newark, NJ":700,"Houston, TX":430,"Los Angeles, CA":1.35,"Indianapolis, IN":400},{"Auction Location":"Keystone Pennsylvania","Auction":"Manhei m","City":"Grantville","State":"PA","Zip":17028,"Savannah, GA":750,"Newark, NJ":275,"Houston, TX":1.15,"Los Angeles, CA":1.65,"Indianapolis, IN":550},{"Auction Location":"KINCHELOE (MI) 49788","Auction":"Copart","City":"KINCHELOE","State":"MI","Zip":49788,"Savannah, GA":1.15,"Newark, NJ":950,"Houston, TX":1.35,"Los Angeles, CA":2.35,"Indianapolis, IN":750},{"Auction Location":"KNOXVILLE 37354","Auction":"Copart","City":"MADISONVILLE","State":"TN","Zip":37354,"Savannah, GA":350,"Newark, NJ":500,"Houston, TX":700,"Los Angeles, CA":1.45,"Indianapolis, IN":650},{"Auction Location":"Knoxville 37771","Auction":"Adesa","City":"Lenoir City","State":"TN","Zip":37771,"Savannah, GA":375,"Newark, NJ":500,"Houston, TX":700,"Los Angeles, CA":1.45,"Indianapolis, IN":650},{"Auction Location":"Knoxville 37914","Auction":"IAAI","City":"Knoxville","State":"TN","Zip":37914,"Savannah, GA":375,"Newark, NJ":500,"Houston, TX":700,"Los Angeles, CA":1.45,"Indianapolis, IN":650},{"Auction Location":"KY - LOUISVILLE 40272","Auction":"Copart","City":"LOUISVILLE","State":"KY","Zip":40272,"Savannah, GA":450,"Newark, NJ":500,"Houston, TX":750,"Los Angeles, CA":1.55,"Indianapolis, IN":450},{"Auction Location":"Lafaette 70583","Auction":"TRA","City":"Scott","State":"LA","Zip":70583,"Savannah, GA":450,"Newark, NJ":850,"Houston, TX":300,"Los Angeles, CA":1.05,"Indianapolis, IN":800},{"Auction Location":"Lafayette","Auction":"Manhei m","City":"Scott","State":"LA","Zip":70583,"Savannah, GA":450,"Newark, NJ":850,"Houston, TX":300,"Los Angeles, CA":1.05,"Indianapolis, IN":800},{"Auction Location":"Lafayette (LA) 70507","Auction":"IAAI","City":"Lafayette","State":"LA","Zip":70507,"Savannah, GA":450,"Newark, NJ":850,"Houston, TX":300,"Los Angeles, CA":1.05,"Indianapolis, IN":800},{"Auction Location":"Lakeland","Auction":"Manhei m","City":"Lakeland","State":"FL","Zip":33809,"Savannah, GA":350,"Newark, NJ":900,"Houston, TX":900,"Los Angeles, CA":1.7,"Indianapolis, IN":1.25},{"Auction Location":"Lansing 48821","Auction":"Adesa","City":"Dimondale","State":"MI","Zip":48821,"Savannah, GA":750,"Newark, NJ":550,"Houston, TX":950,"Los Angeles, CA":1.95,"Indianapolis, IN":525},{"Auction Location":"LANSING 48917","Auction":"Copart","City":"LANSING","State":"MI","Zip":48917,"Savannah, GA":750,"Newark, NJ":550,"Houston, TX":950,"Los Angeles, CA":1.95,"Indianapolis, IN":450},{"Auction Location":"Las Vegas 89011","Auction":"IAAI","City":"Henderson","State":"NV","Zip":89011,"Savannah, GA":1.55,"Newark, NJ":1.55,"Houston, TX":950,"Los Angeles, CA":300,"Indianapolis, IN":1.35},{"Auction Location":"Las Vegas 89030","Auction":"Adesa","City":"North las vegas","State":"NV","Zip":89030,"Savannah, GA":1.55,"Newark, NJ":1.55,"Houston, TX":950,"Los Angeles, CA":325,"Indianapolis, IN":1.35},{"Auction Location":"LAS VEGAS 89115","Auction":"Copart","City":"LAS VEGAS","State":"NV","Zip":89115,"Savannah, GA":1.55,"Newark, NJ":1.55,"Houston, TX":950,"Los Angeles, CA":325,"Indianapolis, IN":1.35},{"Auction Location":"Laurel 20707","Auction":"IAAI","City":"Laurel","State":"MD","Zip":"20707-\r\n6506","Savannah, GA":650,"Newark, NJ":290,"Houston, TX":950,"Los Angeles, CA":1.65,"Indianapolis, IN":650},{"Auction Location":"Lexington (SC) 29073","Auction":"IAAI","City":"Lexington","State":"SC","Zip":29073,"Savannah, GA":225},{"Auction Location":"Lexington 40509","Auction":"Adesa","City":"Lexington","State":"KY","Zip":40509,"Savannah, GA":450,"Newark, NJ":500,"Houston, TX":750,"Los Angeles, CA":1.55,"Indianapolis, IN":350},{"Auction Location":"LEXINGTON EAST 40509","Auction":"Copart","City":"LEXINGTON","State":"KY","Zip":40509,"Savannah, GA":450,"Newark, NJ":500,"Houston, TX":750,"Los Angeles, CA":1.55,"Indianapolis, IN":450},{"Auction Location":"LEXINGTON WEST 40342","Auction":"Copart","City":"LAWRENCEBU RG","State":"KY","Zip":40342,"Savannah, GA":450,"Newark, NJ":500,"Houston, TX":750,"Los Angeles, CA":1.55,"Indianapolis, IN":450},{"Auction Location":"Lincoln 62656","Auction":"IAAI","City":"Lincoln","State":"IL","Zip":62656,"Savannah, GA":800,"Newark, NJ":550,"Houston, TX":750,"Los Angeles, CA":1.55,"Indianapolis, IN":250},{"Auction Location":"LINCOLN 68366","Auction":"Copart","City":"GREENWOOD","State":"NE","Zip":68366,"Savannah, GA":950,"Newark, NJ":650,"Houston, TX":750,"Los Angeles, CA":1.35,"Indianapolis, IN":550},{"Auction Location":"Little Rock","Auction":"Manhei m","City":"Little Rock","State":"AR","Zip":72209,"Savannah, GA":600,"Newark, NJ":850,"Houston, TX":400,"Los Angeles, CA":1.15,"Indianapolis, IN":600},{"Auction Location":"LITTLE ROCK 72032","Auction":"Copart","City":"CONWAY","State":"AR","Zip":72032,"Savannah, GA":600,"Newark, NJ":850,"Houston, TX":400,"Los Angeles, CA":1.15,"Indianapolis, IN":600},{"Auction Location":"Little Rock 72117","Auction":"Adesa","City":"North Little Rock","State":"AR","Zip":72117,"Savannah, GA":600,"Newark, NJ":850,"Houston, TX":400,"Los Angeles, CA":1.15,"Indianapolis, IN":600},{"Auction Location":"Little Rock 72142","Auction":"IAAI","City":"Scott","State":"AR","Zip":"72142-\r\n9081","Savannah, GA":600,"Newark, NJ":850,"Houston, TX":400,"Los Angeles, CA":1.15,"Indianapolis, IN":600},{"Auction Location":"Littleton, CO 80125","Auction":"TRA","City":"Littleton","State":"CO","Zip":80125,"Savannah, GA":1.1,"Newark, NJ":1.05,"Houston, TX":650,"Los Angeles, CA":850,"Indianapolis, IN":850},{"Auction Location":"LONG BEACH (CA) 90744","Auction":"Copart","City":"WILMINGTON","State":"CA","Zip":90744,"Savannah, GA":1.45,"Newark, NJ":1.55,"Houston, TX":850,"Los Angeles, CA":150,"Indianapolis, IN":1.35},{"Auction Location":"LONG ISLAND 11719","Auction":"Copart","City":"BROOKHAVEN","State":"NY","Zip":11719,"Savannah, GA":750,"Newark, NJ":225,"Houston, TX":1.15,"Los Angeles, CA":1.65,"Indianapolis, IN":650},{"Auction Location":"Long Island 11763","Auction":"IAAI","City":"Medford","State":"NY","Zip":11763,"Savannah, GA":750,"Newark, NJ":200,"Houston, TX":1.15,"Los Angeles, CA":1.65,"Indianapolis, IN":650},{"Auction Location":"Long Island 11980","Auction":"Adesa","City":"Yaphank","State":"NY","Zip":11980,"Savannah, GA":750,"Newark, NJ":225,"Houston, TX":1.15,"Los Angeles, CA":1.65,"Indianapolis, IN":650},{"Auction Location":"Longview 75605","Auction":"IAAI","City":"Longview","State":"TX","Zip":"75605-\r\n6771","Savannah, GA":650,"Newark, NJ":950,"Houston, TX":275,"Los Angeles, CA":950,"Indianapolis, IN":800},{"Auction Location":"LONGVIEW, TX 75603","Auction":"Copart","City":"LONGVIEW","State":"TX","Zip":75603,"Savannah, GA":650,"Newark, NJ":950,"Houston, TX":275,"Los Angeles, CA":950,"Indianapolis, IN":800},{"Auction Location":"LOS ANGELES 90001","Auction":"Copart","City":"LOS ANGELES","State":"CA","Zip":90001,"Savannah, GA":1.45,"Newark, NJ":1.55,"Houston, TX":850,"Los Angeles, CA":150,"Indianapolis, IN":1.35},{"Auction Location":"Los Angeles 90248","Auction":"IAAI","City":"Gardena","State":"CA","Zip":"90248-\r\n4056","Savannah, GA":1.45,"Newark, NJ":1.55,"Houston, TX":850,"Los Angeles, CA":150,"Indianapolis, IN":1.35},{"Auction Location":"Los Angeles 91752","Auction":"Adesa","City":"Mira Loma","State":"CA","Zip":91752,"Savannah, GA":1.45,"Newark, NJ":1.55,"Houston, TX":850,"Los Angeles, CA":175,"Indianapolis, IN":1.35},{"Auction Location":"Louisville","Auction":"Manhei m","City":"Clarksville","State":"IN","Zip":47129,"Savannah, GA":475,"Newark, NJ":500,"Houston, TX":750,"Los Angeles, CA":1.55,"Indianapolis, IN":450},{"Auction Location":"Louisville (KY) 40165","Auction":"IAAI","City":"Shepherdsville","State":"KY","Zip":40165,"Savannah, GA":450,"Newark, NJ":500,"Houston, TX":750,"Los Angeles, CA":1.55,"Indianapolis, IN":450},{"Auction Location":"Louisville North (KY)","Auction":"IAAI","City":"Eminence","State":"KY","Zip":40019,"Savannah, GA":450,"Newark, NJ":500,"Houston, TX":750,"Los Angeles, CA":1.55,"Indianapolis, IN":450},{"Auction Location":"Lubbock, TX 79415","Auction":"IAAI","City":"Lubbock","State":"TX","Zip":79415,"Savannah, GA":950,"Newark, NJ":1.35,"Houston, TX":450,"Los Angeles, CA":750,"Indianapolis, IN":950},{"Auction Location":"LUFKIN, TX 75904","Auction":"Copart","City":"LUFKIN","State":"TX","Zip":75904,"Savannah, GA":750,"Newark, NJ":950,"Houston, TX":250,"Los Angeles, CA":950,"Indianapolis, IN":800},{"Auction Location":"LYMAN 04002","Auction":"Copart","City":"LYMAN","State":"ME","Zip":4002,"Savannah, GA":950,"Newark, NJ":375,"Houston, TX":1.4,"Los Angeles, CA":1.95,"Indianapolis, IN":900},{"Auction Location":"MACON (GA) 31008","Auction":"Copart","City":"BYRON","State":"GA","Zip":31008,"Savannah, GA":250,"Newark, NJ":800,"Houston, TX":800,"Los Angeles, CA":1.6,"Indianapolis, IN":750},{"Auction Location":"Macon (GA) 31217","Auction":"IAAI","City":"Macon","State":"GA","Zip":31217,"Savannah, GA":250,"Newark, NJ":800,"Houston, TX":800,"Los Angeles, CA":1.6,"Indianapolis, IN":750},{"Auction Location":"MADISON 53718","Auction":"Copart","City":"MADISON","State":"WI","Zip":53718,"Savannah, GA":1.1,"Newark, NJ":750,"Houston, TX":1.05,"Los Angeles, CA":1.95,"Indianapolis, IN":300},{"Auction Location":"Manchester 03079","Auction":"IAAI","City":"Salem","State":"NH","Zip":3079,"Savannah, GA":850,"Newark, NJ":350,"Houston, TX":1.35,"Los Angeles, CA":1.95,"Indianapolis, IN":850},{"Auction Location":"MARTINEZ 94553","Auction":"Copart","City":"MARTINEZ","State":"CA","Zip":94553,"Savannah, GA":1.55,"Newark, NJ":1.55,"Houston, TX":950,"Los Angeles, CA":325,"Indianapolis, IN":1.35},{"Auction Location":"McAllen (TX) - 78537","Auction":"IAAI","City":"Donna","State":"TX","Zip":78537,"Savannah, GA":950,"Newark, NJ":1.3,"Houston, TX":300,"Los Angeles, CA":950,"Indianapolis, IN":1.05},{"Auction Location":"MCALLEN, TX 78570","Auction":"Copart","City":"MERCEDES","State":"TX","Zip":78570,"Savannah, GA":950,"Newark, NJ":1.3,"Houston, TX":300,"Los Angeles, CA":950,"Indianapolis, IN":1.05},{"Auction Location":"MEBANE 27302","Auction":"Copart","City":"MEBANE","State":"NC","Zip":27302,"Savannah, GA":300,"Newark, NJ":450,"Houston, TX":850,"Los Angeles, CA":1.65,"Indianapolis, IN":800},{"Auction Location":"Memphis 38118","Auction":"Adesa","City":"Memphis","State":"TN","Zip":38118,"Savannah, GA":425,"Newark, NJ":750,"Houston, TX":550,"Los Angeles, CA":1.35,"Indianapolis, IN":550},{"Auction Location":"Memphis 38118","Auction":"IAAI","City":"Memphis","State":"TN","Zip":38118,"Savannah, GA":425,"Newark, NJ":750,"Houston, TX":550,"Los Angeles, CA":1.35,"Indianapolis, IN":550},{"Auction Location":"MEMPHIS 38118","Auction":"Copart","City":"MEMPHIS","State":"TN","Zip":38118,"Savannah, GA":425,"Newark, NJ":750,"Houston, TX":550,"Los Angeles, CA":1.35,"Indianapolis, IN":550},{"Auction Location":"Mercer","Auction":"Adesa","City":"Mercer","State":"PA","Zip":16137,"Savannah, GA":850,"Newark, NJ":425,"Houston, TX":950,"Los Angeles, CA":1.75,"Indianapolis, IN":400},{"Auction Location":"Metro Atlanta","Auction":"Manhei m","City":"Atlanta","State":"GA","Zip":30315,"Savannah, GA":250,"Newark, NJ":800,"Houston, TX":800,"Los Angeles, CA":1.6,"Indianapolis, IN":750},{"Auction Location":"Metro DC 20613","Auction":"IAAI","City":"Brandywine","State":"MD","Zip":20613,"Savannah, GA":650,"Newark, NJ":300,"Houston, TX":950,"Los Angeles, CA":1.65,"Indianapolis, IN":650},{"Auction Location":"Miami 33054","Auction":"IAAI","City":"Opa Locka","State":"FL","Zip":33054,"Savannah, GA":350,"Newark, NJ":900,"Houston, TX":900,"Los Angeles, CA":1.7,"Indianapolis, IN":1.25},{"Auction Location":"MIAMI CENTRAL 33167","Auction":"Copart","City":"MIAMI","State":"FL","Zip":33167,"Savannah, GA":350,"Newark, NJ":900,"Houston, TX":900,"Los Angeles, CA":1.7,"Indianapolis, IN":1.25},{"Auction Location":"MIAMI NORTH 33054","Auction":"Copart","City":"opa locka","State":"FL","Zip":33054,"Savannah, GA":350,"Newark, NJ":900,"Houston, TX":900,"Los Angeles, CA":1.7,"Indianapolis, IN":1.25},{"Auction Location":"MIAMI SOUTH 33032","Auction":"Copart","City":"HOMESTEAD","State":"FL","Zip":33032,"Savannah, GA":350,"Newark, NJ":900,"Houston, TX":900,"Los Angeles, CA":1.7,"Indianapolis, IN":1.25},{"Auction Location":"Miami-North 33332","Auction":"IAAI","City":"fort lauderdale","State":"FL","Zip":33332,"Savannah, GA":350,"Newark, NJ":900,"Houston, TX":900,"Los Angeles, CA":1.7,"Indianapolis, IN":1.25},{"Auction Location":"Milwaukee","Auction":"Manhei m","City":"Caledonia","State":"WI","Zip":53108,"Savannah, GA":1.1,"Newark, NJ":750,"Houston, TX":1.05,"Los Angeles, CA":1.95,"Indianapolis, IN":300},{"Auction Location":"Milwaukee 53089","Auction":"IAAI","City":"Sussex","State":"WI","Zip":53089,"Savannah, GA":1.1,"Newark, NJ":750,"Houston, TX":1.05,"Los Angeles, CA":1.95,"Indianapolis, IN":300},{"Auction Location":"MILWAUKEE 53110","Auction":"Copart","City":"CUDAHY","State":"WI","Zip":53110,"Savannah, GA":1.1,"Newark, NJ":750,"Houston, TX":1.05,"Los Angeles, CA":1.95,"Indianapolis, IN":300},{"Auction Location":"Minneapolis","Auction":"Manhei m","City":"Maple Grove","State":"MN","Zip":55369,"Savannah, GA":1.1,"Newark, NJ":800,"Houston, TX":1.25,"Los Angeles, CA":1.95,"Indianapolis, IN":450},{"Auction Location":"Minneapolis 55369","Auction":"Adesa","City":"Dayton","State":"MN","Zip":55369,"Savannah, GA":1.1,"Newark, NJ":800,"Houston, TX":1.25,"Los Angeles, CA":1.95,"Indianapolis, IN":450},{"Auction Location":"Minneapolis- 55369","Auction":"TRA","City":"Maple Grove","State":"MN","Zip":55369,"Savannah, GA":1.1,"Newark, NJ":800,"Houston, TX":1.25,"Los Angeles, CA":1.95,"Indianapolis, IN":450},{"Auction Location":"MINNEAPOLIS 55421","Auction":"Copart","City":"BLAINE","State":"Minnes ota","Zip":55434,"Savannah, GA":1.1,"Newark, NJ":800,"Houston, TX":1.25,"Los Angeles, CA":1.95,"Indianapolis, IN":450},{"Auction Location":"MINNEAPOLIS NORTH 55304","Auction":"Copart","City":"HAM LAKE","State":"MN","Zip":55304,"Savannah, GA":1.1,"Newark, NJ":800,"Houston, TX":1.25,"Los Angeles, CA":1.95,"Indianapolis, IN":450},{"Auction Location":"Minneapolis/St. Paul 55117","Auction":"IAAI","City":"Maplewood","State":"MN","Zip":55117,"Savannah, GA":1.1,"Newark, NJ":800,"Houston, TX":1.25,"Los Angeles, CA":1.95,"Indianapolis, IN":450},{"Auction Location":"Mississippi","Auction":"Manhei m","City":"Hattiesburg","State":"MS","Zip":39402,"Savannah, GA":450,"Newark, NJ":800,"Houston, TX":425,"Los Angeles, CA":1.15,"Indianapolis, IN":800},{"Auction Location":"Missoula 59802","Auction":"IAAI","City":"Missoula","State":"MT","Zip":59802,"Savannah, GA":1.65,"Newark, NJ":1.35,"Houston, TX":1.35,"Los Angeles, CA":1.05,"Indianapolis, IN":1.1},{"Auction Location":"MOBILE 36613","Auction":"Copart","City":"EIGHT MILE","State":"AL","Zip":36613,"Savannah, GA":350,"Newark, NJ":850,"Houston, TX":550,"Los Angeles, CA":1.35,"Indianapolis, IN":1.05},{"Auction Location":"MOCKSVILLE, NC 27028","Auction":"Copart","City":"MOCKSVILLE","State":"NC","Zip":27028,"Savannah, GA":300,"Newark, NJ":500,"Houston, TX":850,"Los Angeles, CA":1.65,"Indianapolis, IN":800},{"Auction Location":"Montgomery","Auction":"Manhei m","City":"Montgomery","State":"AL","Zip":36117,"Savannah, GA":325,"Newark, NJ":750,"Houston, TX":600,"Los Angeles, CA":1.45,"Indianapolis, IN":800},{"Auction Location":"MONTGOMERY 36116","Auction":"Copart","City":"MONTGOMERY","State":"AL","Zip":36116,"Savannah, GA":325,"Newark, NJ":750,"Houston, TX":600,"Los Angeles, CA":1.45,"Indianapolis, IN":800},{"Auction Location":"myCentralAuction","Auction":"Manhei m","City":"Atlanta","State":"GA","Zip":30328,"Savannah, GA":250,"Newark, NJ":800,"Houston, TX":800,"Los Angeles, CA":1.6,"Indianapolis, IN":750},{"Auction Location":"Nashville","Auction":"Manhei m","City":"Mount Juliet","State":"TN","Zip":37122,"Savannah, GA":375,"Newark, NJ":550,"Houston, TX":650,"Los Angeles, CA":1.45,"Indianapolis, IN":550},{"Auction Location":"NASHVILLE 37090","Auction":"Copart","City":"LEBANON","State":"TN","Zip":37090,"Savannah, GA":375,"Newark, NJ":550,"Houston, TX":650,"Los Angeles, CA":1.45,"Indianapolis, IN":550},{"Auction Location":"Nashville 37138","Auction":"Adesa","City":"Old Hickory","State":"TN","Zip":37138,"Savannah, GA":375,"Newark, NJ":550,"Houston, TX":650,"Los Angeles, CA":1.45,"Indianapolis, IN":550},{"Auction Location":"Nashville 37218","Auction":"IAAI","City":"Nashville","State":"TN","Zip":37218,"Savannah, GA":375,"Newark, NJ":550,"Houston, TX":650,"Los Angeles, CA":1.45,"Indianapolis, IN":550},{"Auction Location":"Nevada","Auction":"Manhei m","City":"North Las Vegas","State":"NV","Zip":89165,"Savannah, GA":1.55,"Newark, NJ":1.55,"Houston, TX":950,"Los Angeles, CA":325,"Indianapolis, IN":1.35},{"Auction Location":"New Castle 19720","Auction":"IAAI","City":"New Castle","State":"DE","Zip":19720,"Savannah, GA":650,"Newark, NJ":275,"Houston, TX":1.05,"Los Angeles, CA":1.65,"Indianapolis, IN":650},{"Auction Location":"New England","Auction":"Manhei m","City":"North Dighton","State":"MA","Zip":2764,"Savannah, GA":850,"Newark, NJ":350,"Houston, TX":1.25,"Los Angeles, CA":1.85,"Indianapolis, IN":750},{"Auction Location":"New Jersey","Auction":"Manhei m","City":"Bordentown","State":"NJ","Zip":8505,"Savannah, GA":650,"Newark, NJ":150,"Houston, TX":1.05,"Los Angeles, CA":1.65,"Indianapolis, IN":600},{"Auction Location":"New Jersey 08835","Auction":"Adesa","City":"Manville","State":"NJ","Zip":8835,"Savannah, GA":650,"Newark, NJ":175,"Houston, TX":1.15,"Los Angeles, CA":1.65,"Indianapolis, IN":650},{"Auction Location":"New Mexico","Auction":"Manhei m","City":"Albuquerque","State":"NM","Zip":87105,"Savannah, GA":1.05,"Newark, NJ":1.35,"Houston, TX":525,"Los Angeles, CA":550,"Indianapolis, IN":1.25},{"Auction Location":"New Orleans","Auction":"Manhei m","City":"Slidell","State":"LA","Zip":70460,"Savannah, GA":450,"Newark, NJ":850,"Houston, TX":300,"Los Angeles, CA":1.05,"Indianapolis, IN":800},{"Auction Location":"NEW ORLEANS 70129","Auction":"Copart","City":"NEW ORLEANS","State":"LA","Zip":70129,"Savannah, GA":450,"Newark, NJ":850,"Houston, TX":300,"Los Angeles, CA":1.05,"Indianapolis, IN":800},{"Auction Location":"New Orleans 70433","Auction":"IAAI","City":"Covington","State":"LA","Zip":70433,"Savannah, GA":450,"Newark, NJ":850,"Houston, TX":300,"Los Angeles, CA":1.05,"Indianapolis, IN":800},{"Auction Location":"New Orleans East 70126","Auction":"IAAI","City":"New Orleans","State":"LA","Zip":70126,"Savannah, GA":450,"Newark, NJ":850,"Houston, TX":300,"Los Angeles, CA":1.05,"Indianapolis, IN":800},{"Auction Location":"New York","Auction":"Manhei m","City":"Newburgh","State":"NY","Zip":12550,"Savannah, GA":750,"Newark, NJ":200,"Houston, TX":1.15,"Los Angeles, CA":1.65,"Indianapolis, IN":500},{"Auction Location":"Newburgh 12575","Auction":"IAAI","City":"Rock Tavern","State":"NY","Zip":12575,"Savannah, GA":750,"Newark, NJ":200,"Houston, TX":1.15,"Los Angeles, CA":1.65,"Indianapolis, IN":500},{"Auction Location":"NEWBURGH/Marlbo ro 12542","Auction":"Copart","City":"MARLBORO","State":"NY","Zip":12542,"Savannah, GA":750,"Newark, NJ":200,"Houston, TX":1.15,"Los Angeles, CA":1.65,"Indianapolis, IN":500},{"Auction Location":"NORTH BOSTON 01862","Auction":"Copart","City":"NORTH BILLERICA","State":"MA","Zip":1862,"Savannah, GA":850,"Newark, NJ":350,"Houston, TX":1.25,"Los Angeles, CA":1.85,"Indianapolis, IN":750},{"Auction Location":"North Carolina","Auction":"Manhei m","City":"Kenly","State":"NC","Zip":27542,"Savannah, GA":275,"Newark, NJ":450,"Houston, TX":850,"Los Angeles, CA":1.65,"Indianapolis, IN":800},{"Auction Location":"NORTH CHARLESTON (SC) 29448","Auction":"Copart","City":"HARLEYVILLE","State":"SC","Zip":29448,"Savannah, GA":200},{"Auction Location":"North Hollywood 91605","Auction":"IAAI","City":"North Hollywood","State":"CA","Zip":"91605-\r\n3709","Savannah, GA":1.45,"Newark, NJ":1.55,"Houston, TX":850,"Los Angeles, CA":200,"Indianapolis, IN":1.35},{"Auction Location":"NORTH SEATTLE 98223","Auction":"Copart","City":"ARLINGTON","State":"WA","Zip":98223,"Savannah, GA":1.95,"Newark, NJ":1.55,"Houston, TX":1.35,"Los Angeles, CA":650,"Indianapolis, IN":1.15},{"Auction Location":"Northern New Jersey 07008","Auction":"IAAI","City":"Carteret","State":"NJ","Zip":"07008-\r\n1008","Savannah, GA":650,"Newark, NJ":150,"Houston, TX":1.05,"Los Angeles, CA":1.65,"Indianapolis, IN":600},{"Auction Location":"Northern Virginia 22406","Auction":"IAAI","City":"Fredericksburg","State":"VA","Zip":"22406-\r\n1030","Savannah, GA":600,"Newark, NJ":390,"Houston, TX":950,"Los Angeles, CA":1.65,"Indianapolis, IN":650},{"Auction Location":"Northstar Minnesota","Auction":"Manhei m","City":"Shakopee","State":"MN","Zip":55379,"Savannah, GA":1.1,"Newark, NJ":800,"Houston, TX":1.25,"Los Angeles, CA":1.95,"Indianapolis, IN":550},{"Auction Location":"Northwest","Auction":"Adesa","City":"Eugene","State":"OR","Zip":97402,"Savannah, GA":1.75,"Newark, NJ":1.55,"Houston, TX":1.15,"Los Angeles, CA":525,"Indianapolis, IN":1.35},{"Auction Location":"NY Metro Skyline","Auction":"Manhei m","City":"Fairfield","State":"NJ","Zip":7004,"Savannah, GA":650,"Newark, NJ":150,"Houston, TX":1.05,"Los Angeles, CA":1.65,"Indianapolis, IN":600},{"Auction Location":"Ocala 34474","Auction":"Adesa","City":"Ocala","State":"FL","Zip":34474,"Savannah, GA":275,"Newark, NJ":850,"Houston, TX":850,"Los Angeles, CA":1.65,"Indianapolis, IN":1.15},{"Auction Location":"OCALA 34482","Auction":"Copart","City":"OCALA","State":"FL","Zip":34482,"Savannah, GA":275,"Newark, NJ":850,"Houston, TX":850,"Los Angeles, CA":1.65,"Indianapolis, IN":1.15},{"Auction Location":"OGDEN UT","Auction":"Copart","City":"FARR WEST","State":"UT","Zip":84404,"Savannah, GA":1.75,"Newark, NJ":1.35,"Houston, TX":1.15,"Los Angeles, CA":500,"Indianapolis, IN":750},{"Auction Location":"Ohio","Auction":"Manhei m","City":"Grove City","State":"OH","Zip":43123,"Savannah, GA":700,"Newark, NJ":400,"Houston, TX":850,"Los Angeles, CA":1.75,"Indianapolis, IN":250},{"Auction Location":"Oklahoma City 73121","Auction":"IAAI","City":"Oklahoma City","State":"OK","Zip":73121,"Savannah, GA":750,"Newark, NJ":900,"Houston, TX":400,"Los Angeles, CA":950,"Indianapolis, IN":600},{"Auction Location":"OKLAHOMA CITY 73129","Auction":"Copart","City":"OKLAHOMA CITY","State":"OK","Zip":73129,"Savannah, GA":750,"Newark, NJ":900,"Houston, TX":400,"Los Angeles, CA":950,"Indianapolis, IN":600},{"Auction Location":"Omaha","Auction":"Manhei m","City":"Omaha","State":"NE","Zip":68138,"Savannah, GA":950,"Newark, NJ":725,"Houston, TX":750,"Los Angeles, CA":1.35,"Indianapolis, IN":650},{"Auction Location":"Omaha 68059","Auction":"IAAI","City":"Springfield","State":"NE","Zip":68059,"Savannah, GA":950,"Newark, NJ":725,"Houston, TX":750,"Los Angeles, CA":1.35,"Indianapolis, IN":650},{"Auction Location":"Orlando","Auction":"Manhei m","City":"Ocoee","State":"FL","Zip":34761,"Savannah, GA":275,"Newark, NJ":850,"Houston, TX":850,"Los Angeles, CA":1.65,"Indianapolis, IN":1.15},{"Auction Location":"Orlando  32771","Auction":"Adesa","City":"Sanford","State":"FL","Zip":32771,"Savannah, GA":275,"Newark, NJ":850,"Houston, TX":850,"Los Angeles, CA":1.65,"Indianapolis, IN":1.15},{"Auction Location":"ORLANDO (FL) 32822","Auction":"Copart","City":"ORLANDO","State":"FL","Zip":32822,"Savannah, GA":275,"Newark, NJ":850,"Houston, TX":850,"Los Angeles, CA":1.65,"Indianapolis, IN":1.15},{"Auction Location":"Orlando 32824","Auction":"IAAI","City":"Orlando","State":"FL","Zip":32824,"Savannah, GA":275,"Newark, NJ":850,"Houston, TX":850,"Los Angeles, CA":1.65,"Indianapolis, IN":1.15},{"Auction Location":"ORLANDO NORTH (FL)","Auction":"Copart","City":"APOPKA","State":"FL","Zip":32712,"Savannah, GA":275,"Newark, NJ":850,"Houston, TX":850,"Los Angeles, CA":1.65,"Indianapolis, IN":1.15},{"Auction Location":"ORLANDO SOUTH (FL)","Auction":"Copart","City":"ORLANDO","State":"FL","Zip":32824,"Savannah, GA":275,"Newark, NJ":850,"Houston, TX":850,"Los Angeles, CA":1.65,"Indianapolis, IN":1.15},{"Auction Location":"Orlando-North 32773","Auction":"IAAI","City":"Sanford","State":"FL","Zip":32773,"Savannah, GA":275,"Newark, NJ":850,"Houston, TX":850,"Los Angeles, CA":1.65,"Indianapolis, IN":1.15},{"Auction Location":"Paducah 42002","Auction":"IAAI","City":"Paducah","State":"KY","Zip":42002,"Savannah, GA":450,"Newark, NJ":500,"Houston, TX":750,"Los Angeles, CA":1.55,"Indianapolis, IN":450},{"Auction Location":"Palm Beach","Auction":"Manhei m","City":"West Palm Beach","State":"FL","Zip":33411,"Savannah, GA":350,"Newark, NJ":900,"Houston, TX":900,"Los Angeles, CA":1.7,"Indianapolis, IN":1.25},{"Auction Location":"PASCO (WA) 99301","Auction":"Copart","City":"PASCO","State":"WA","Zip":99301,"Savannah, GA":1.95,"Newark, NJ":1.55,"Houston, TX":1.35,"Los Angeles, CA":750,"Indianapolis, IN":1.15},{"Auction Location":"Pennsylvania","Auction":"Manhei m","City":"Manheim","State":"PA","Zip":17545,"Savannah, GA":650,"Newark, NJ":200,"Houston, TX":1.05,"Los Angeles, CA":1.65,"Indianapolis, IN":550},{"Auction Location":"Pennsylvania 17406","Auction":"Adesa","City":"York","State":"PA","Zip":17406,"Savannah, GA":750,"Newark, NJ":300,"Houston, TX":1.15,"Los Angeles, CA":1.65,"Indianapolis, IN":550},{"Auction Location":"Pensacola","Auction":"Manhei m","City":"Pensacola","State":"FL","Zip":32505,"Savannah, GA":350,"Newark, NJ":850,"Houston, TX":550,"Los Angeles, CA":1.35,"Indianapolis, IN":1.05},{"Auction Location":"Pensacola 32583","Auction":"IAAI","City":"Milton","State":"FL","Zip":32583,"Savannah, GA":350,"Newark, NJ":850,"Houston, TX":550,"Los Angeles, CA":1.35,"Indianapolis, IN":1.05},{"Auction Location":"PEORIA (IL) 61554","Auction":"Copart","City":"PEKIN","State":"IL","Zip":61554,"Savannah, GA":800,"Newark, NJ":500,"Houston, TX":850,"Los Angeles, CA":1.55,"Indianapolis, IN":250},{"Auction Location":"Permian Basin 79764","Auction":"IAAI","City":"Odessa","State":"TX","Zip":79764,"Savannah, GA":950,"Newark, NJ":1.35,"Houston, TX":450,"Los Angeles, CA":750,"Indianapolis, IN":1.15},{"Auction Location":"Philadelphia","Auction":"Manhei m","City":"Hatfield","State":"PA","Zip":19440,"Savannah, GA":650,"Newark, NJ":200,"Houston, TX":1.05,"Los Angeles, CA":1.65,"Indianapolis, IN":550},{"Auction Location":"PHILADELPHIA (PA) 18073","Auction":"Copart","City":"PENNSBURG","State":"PA","Zip":18073,"Savannah, GA":650,"Newark, NJ":200,"Houston, TX":1.05,"Los Angeles, CA":1.65,"Indianapolis, IN":550},{"Auction Location":"Philadelphia 19428","Auction":"IAAI","City":"Conshohocken","State":"PA","Zip":"19428-\r\n1058","Savannah, GA":650,"Newark, NJ":200,"Houston, TX":1.05,"Los Angeles, CA":1.65,"Indianapolis, IN":550},{"Auction Location":"PHILADELPHIA EAST (PA) 18914","Auction":"Copart","City":"CHALFONT","State":"PA","Zip":18914,"Savannah, GA":650,"Newark, NJ":200,"Houston, TX":1.05,"Los Angeles, CA":1.65,"Indianapolis, IN":550},{"Auction Location":"Phoenix","Auction":"Manhei m","City":"Tolleson","State":"AZ","Zip":85353,"Savannah, GA":1.3,"Newark, NJ":1.35,"Houston, TX":700,"Los Angeles, CA":325,"Indianapolis, IN":1.35},{"Auction Location":"PHOENIX (AZ) 85043","Auction":"Copart","City":"PHOENIX","State":"AZ","Zip":85043,"Savannah, GA":1.3,"Newark, NJ":1.35,"Houston, TX":700,"Los Angeles, CA":325,"Indianapolis, IN":1.35},{"Auction Location":"Phoenix 85041","Auction":"IAAI","City":"Phoenix","State":"AZ","Zip":85041,"Savannah, GA":1.3,"Newark, NJ":1.35,"Houston, TX":700,"Los Angeles, CA":325,"Indianapolis, IN":1.35},{"Auction Location":"Phoenix 85226","Auction":"Adesa","City":"Chandler","State":"AZ","Zip":85226,"Savannah, GA":1.3,"Newark, NJ":1.35,"Houston, TX":700,"Los Angeles, CA":300,"Indianapolis, IN":1.35},{"Auction Location":"Phoenix -AZ-85009","Auction":"TRA","City":"Phoenix","State":"AZ","Zip":85009,"Savannah, GA":1.3,"Newark, NJ":1.35,"Houston, TX":700,"Los Angeles, CA":325,"Indianapolis, IN":1.35},{"Auction Location":"Pittsburgh","Auction":"Manhei m","City":"Cranberry Twp","State":"PA","Zip":16066,"Savannah, GA":850,"Newark, NJ":390,"Houston, TX":1.25,"Los Angeles, CA":1.65,"Indianapolis, IN":450},{"Auction Location":"Pittsburgh 15001","Auction":"IAAI","City":"Aliquippa","State":"PA","Zip":15001,"Savannah, GA":850,"Newark, NJ":390,"Houston, TX":1.25,"Los Angeles, CA":1.65,"Indianapolis, IN":450},{"Auction Location":"Pittsburgh 16137","Auction":"Adesa","City":"New Stanton","State":"PA","Zip":15672,"Savannah, GA":850,"Newark, NJ":390,"Houston, TX":1.25,"Los Angeles, CA":1.65,"Indianapolis, IN":450},{"Auction Location":"PITTSBURGH EAST (PA) 15611","Auction":"Copart","City":"ADAMSBURG","State":"PA","Zip":15611,"Savannah, GA":850,"Newark, NJ":390,"Houston, TX":1.25,"Los Angeles, CA":1.65,"Indianapolis, IN":450},{"Auction Location":"PITTSBURGH NORTH (PA) 16117","Auction":"Copart","City":"ELLWOOD CITY","State":"PA","Zip":16117,"Savannah, GA":850,"Newark, NJ":390,"Houston, TX":1.25,"Los Angeles, CA":1.65,"Indianapolis, IN":450},{"Auction Location":"PITTSBURGH SOUTH (PA) 15122","Auction":"Copart","City":"WEST MIFFLIN","State":"PA","Zip":15122,"Savannah, GA":850,"Newark, NJ":390,"Houston, TX":1.25,"Los Angeles, CA":1.65,"Indianapolis, IN":450},{"Auction Location":"Pittsburgh-North 15044","Auction":"IAAI","City":"Gibsonia","State":"PA","Zip":15044,"Savannah, GA":850,"Newark, NJ":390,"Houston, TX":1.25,"Los Angeles, CA":1.65,"Indianapolis, IN":450},{"Auction Location":"Portage (WI) 53901","Auction":"IAAI","City":"Portage","State":"WI","Zip":53901,"Savannah, GA":1.1,"Newark, NJ":750,"Houston, TX":1.05,"Los Angeles, CA":1.95,"Indianapolis, IN":350},{"Auction Location":"Portland","Auction":"Manhei m","City":"Portland","State":"OR","Zip":97217,"Savannah, GA":1.75,"Newark, NJ":1.55,"Houston, TX":1.15,"Los Angeles, CA":525,"Indianapolis, IN":1.35},{"Auction Location":"Portland","Auction":"Adesa","City":"Wood Village","State":"OR","Zip":97060,"Savannah, GA":1.75,"Newark, NJ":1.55,"Houston, TX":1.15,"Los Angeles, CA":525,"Indianapolis, IN":1.35},{"Auction Location":"Portland - Gorham (ME)","Auction":"IAAI","City":"Gorham","State":"ME","Zip":4038,"Savannah, GA":950,"Newark, NJ":400,"Houston, TX":1.4,"Los Angeles, CA":1.95,"Indianapolis, IN":900},{"Auction Location":"Portland 97230","Auction":"IAAI","City":"Portland","State":"OR","Zip":"97230-\r\n4933","Savannah, GA":1.75,"Newark, NJ":1.55,"Houston, TX":1.15,"Los Angeles, CA":525,"Indianapolis, IN":1.35},{"Auction Location":"PORTLAND NORTH (OR) 97218","Auction":"Copart","City":"PORTLAND","State":"OR","Zip":97218,"Savannah, GA":1.75,"Newark, NJ":1.55,"Houston, TX":1.15,"Los Angeles, CA":525,"Indianapolis, IN":1.35},{"Auction Location":"PORTLAND SOUTH (OR) 97071","Auction":"Copart","City":"WOODBURN","State":"OR","Zip":97071,"Savannah, GA":1.75,"Newark, NJ":1.55,"Houston, TX":1.15,"Los Angeles, CA":525,"Indianapolis, IN":1.35},{"Auction Location":"Portland West 97217","Auction":"IAAI","City":"Portland","State":"OR","Zip":97217,"Savannah, GA":1.75,"Newark, NJ":1.55,"Houston, TX":1.15,"Los Angeles, CA":525,"Indianapolis, IN":1.35},{"Auction Location":"Providence (RI) 02915","Auction":"IAAI","City":"Riverside","State":"RI","Zip":2915,"Savannah, GA":850,"Newark, NJ":350,"Houston, TX":1.35,"Los Angeles, CA":1.95,"Indianapolis, IN":750},{"Auction Location":"Pulaski 24301","Auction":"IAAI","City":"Pulaski","State":"VA","Zip":24301,"Savannah, GA":550,"Newark, NJ":390,"Houston, TX":850,"Los Angeles, CA":1.65,"Indianapolis, IN":650},{"Auction Location":"PUNTA GORDA (FL) 33982","Auction":"Copart","City":"PUNTA GORDA","State":"FL","Zip":33982,"Savannah, GA":350,"Newark, NJ":900,"Houston, TX":900,"Los Angeles, CA":1.7,"Indianapolis, IN":1.25},{"Auction Location":"Puyallup 98374","Auction":"IAAI","City":"Puyallup","State":"WA","Zip":98374,"Savannah, GA":1.95,"Newark, NJ":1.55,"Houston, TX":1.35,"Los Angeles, CA":650,"Indianapolis, IN":1.15},{"Auction Location":"Queen City 45237","Auction":"Adesa","City":"Cincinnati","State":"OH","Zip":45237,"Savannah, GA":700,"Newark, NJ":450,"Houston, TX":850,"Los Angeles, CA":1.75,"Indianapolis, IN":250},{"Auction Location":"RALEIGH (NC) 28334","Auction":"Copart","City":"DUNN","State":"NC","Zip":28334,"Savannah, GA":275,"Newark, NJ":450,"Houston, TX":850,"Los Angeles, CA":1.65,"Indianapolis, IN":800},{"Auction Location":"Raleigh 27520","Auction":"Adesa","City":"Clayton","State":"NC","Zip":"27520-\r\n6309","Savannah, GA":275,"Newark, NJ":450,"Houston, TX":850,"Los Angeles, CA":1.65,"Indianapolis, IN":800},{"Auction Location":"Raleigh 27520","Auction":"IAAI","City":"Clayton","State":"NC","Zip":27520,"Savannah, GA":275,"Newark, NJ":450,"Houston, TX":850,"Los Angeles, CA":1.65,"Indianapolis, IN":800},{"Auction Location":"RANCHO CUCAMONGA (CA) 91739","Auction":"Copart","City":"RANCHO CUCAMONGA","State":"CA","Zip":91739,"Savannah, GA":1.45,"Newark, NJ":1.55,"Houston, TX":850,"Los Angeles, CA":175,"Indianapolis, IN":1.35},{"Auction Location":"Reno","Auction":"Adesa","City":"Reno","State":"NV","Zip":89506,"Savannah, GA":1.65,"Newark, NJ":1.55,"Houston, TX":1.05,"Los Angeles, CA":450,"Indianapolis, IN":1.35},{"Auction Location":"RENO (NV) 89506","Auction":"Copart","City":"RENO","State":"NV","Zip":89506,"Savannah, GA":1.65,"Newark, NJ":1.55,"Houston, TX":1.05,"Los Angeles, CA":450,"Indianapolis, IN":1.35},{"Auction Location":"Reno 89434","Auction":"IAAI","City":"Mccarran","State":"NV","Zip":89434,"Savannah, GA":1.65,"Newark, NJ":1.55,"Houston, TX":1.05,"Los Angeles, CA":450,"Indianapolis, IN":1.35},{"Auction Location":"RICHMOND (VA) 23150","Auction":"Copart","City":"SANDSTON","State":"VA","Zip":23150,"Savannah, GA":550,"Newark, NJ":325,"Houston, TX":850,"Los Angeles, CA":1.65,"Indianapolis, IN":650},{"Auction Location":"Richmond 23005","Auction":"IAAI","City":"Ashland","State":"VA","Zip":23005,"Savannah, GA":550,"Newark, NJ":325,"Houston, TX":850,"Los Angeles, CA":1.65,"Indianapolis, IN":650},{"Auction Location":"RICHMOND EAST, VA 23030","Auction":"Copart","City":"CHARLES CITY","State":"VA","Zip":23030,"Savannah, GA":550,"Newark, NJ":325,"Houston, TX":850,"Los Angeles, CA":1.65,"Indianapolis, IN":650},{"Auction Location":"Riverside","Auction":"Manhei m","City":"Riverside","State":"CA","Zip":92504,"Savannah, GA":1.45,"Newark, NJ":1.55,"Houston, TX":850,"Los Angeles, CA":150,"Indianapolis, IN":1.35},{"Auction Location":"Riverside (CA) 92509","Auction":"IAAI","City":"RIVERSIDE","State":"CA","Zip":92509,"Savannah, GA":1.45,"Newark, NJ":1.55,"Houston, TX":850,"Los Angeles, CA":150,"Indianapolis, IN":1.35},{"Auction Location":"ROCHESTER (NY) 14482","Auction":"Copart","City":"LEROY","State":"NY","Zip":14482,"Savannah, GA":850,"Newark, NJ":350,"Houston, TX":1.35,"Los Angeles, CA":1.65,"Indianapolis, IN":500},{"Auction Location":"Rochester 14416","Auction":"IAAI","City":"Bergen","State":"NY","Zip":14416,"Savannah, GA":850,"Newark, NJ":375,"Houston, TX":1.35,"Los Angeles, CA":1.65,"Indianapolis, IN":500},{"Auction Location":"Rosedale  21237","Auction":"IAAI","City":"Rosedale","State":"MD","Zip":21237,"Savannah, GA":650,"Newark, NJ":275,"Houston, TX":950,"Los Angeles, CA":1.65,"Indianapolis, IN":650},{"Auction Location":"SACRAMENTO (CA) 95828","Auction":"Copart","City":"SACRAMENTO","State":"CA","Zip":95828,"Savannah, GA":1.55,"Newark, NJ":1.55,"Houston, TX":950,"Los Angeles, CA":325,"Indianapolis, IN":1.35},{"Auction Location":"Sacramento 95742","Auction":"IAAI","City":"Rancho Cordova","State":"CA","Zip":"95742-\r\n7313","Savannah, GA":1.55,"Newark, NJ":1.55,"Houston, TX":950,"Los Angeles, CA":325,"Indianapolis, IN":1.35},{"Auction Location":"Sacramento 95826","Auction":"Adesa","City":"Sacramento","State":"CA","Zip":95826,"Savannah, GA":1.55,"Newark, NJ":1.55,"Houston, TX":950,"Los Angeles, CA":325,"Indianapolis, IN":1.35},{"Auction Location":"Salt Lake","Auction":"Adesa","City":"Salt Lake City","State":"UT","Zip":84104,"Savannah, GA":1.75,"Newark, NJ":1.35,"Houston, TX":1.15,"Los Angeles, CA":500,"Indianapolis, IN":750},{"Auction Location":"SALT LAKE CITY (UT) 84054","Auction":"Copart","City":"NORTH SALT LAKE","State":"UT","Zip":84054,"Savannah, GA":1.75,"Newark, NJ":1.35,"Houston, TX":1.15,"Los Angeles, CA":475,"Indianapolis, IN":750},{"Auction Location":"Salt Lake City 84401","Auction":"IAAI","City":"Ogden","State":"UT","Zip":"84401-\r\n0258","Savannah, GA":1.75,"Newark, NJ":1.35,"Houston, TX":1.15,"Los Angeles, CA":500,"Indianapolis, IN":750},{"Auction Location":"San Antonio","Auction":"Manhei m","City":"San Antonio","State":"TX","Zip":78219,"Savannah, GA":750,"Newark, NJ":1.22,"Houston, TX":250,"Los Angeles, CA":950,"Indianapolis, IN":950},{"Auction Location":"SAN ANTONIO (TX) 78224","Auction":"Copart","City":"SAN ANTONIO","State":"TX","Zip":78224,"Savannah, GA":750,"Newark, NJ":1.2,"Houston, TX":250,"Los Angeles, CA":950,"Indianapolis, IN":950},{"Auction Location":"San Antonio 78211","Auction":"IAAI","City":"San Antonio","State":"TX","Zip":78211,"Savannah, GA":750,"Newark, NJ":1.2,"Houston, TX":250,"Los Angeles, CA":950,"Indianapolis, IN":950},{"Auction Location":"San Antonio 78227","Auction":"Adesa","City":"SAN ANTONIO","State":"TX","Zip":78227,"Savannah, GA":750,"Newark, NJ":1.2,"Houston, TX":250,"Los Angeles, CA":950,"Indianapolis, IN":950},{"Auction Location":"San Antonio-South 78224","Auction":"IAAI","City":"San Antonio","State":"TX","Zip":78224,"Savannah, GA":750,"Newark, NJ":1.2,"Houston, TX":250,"Los Angeles, CA":950,"Indianapolis, IN":950},{"Auction Location":"SAN BERNARDINO (CA) 92324","Auction":"Copart","City":"COLTON","State":"CA","Zip":92324,"Savannah, GA":1.45,"Newark, NJ":1.55,"Houston, TX":850,"Los Angeles, CA":150,"Indianapolis, IN":1.35},{"Auction Location":"San Diego","Auction":"Manhei m","City":"Oceanside","State":"CA","Zip":92057,"Savannah, GA":1.55,"Newark, NJ":1.55,"Houston, TX":950,"Los Angeles, CA":225,"Indianapolis, IN":1.35},{"Auction Location":"SAN DIEGO (CA) 92154","Auction":"Copart","City":"SAN DIEGO","State":"CA","Zip":92154,"Savannah, GA":1.55,"Newark, NJ":1.55,"Houston, TX":950,"Los Angeles, CA":225,"Indianapolis, IN":1.35},{"Auction Location":"San Diego 92154","Auction":"Adesa","City":"San Diego","State":"CA","Zip":92154,"Savannah, GA":1.55,"Newark, NJ":1.55,"Houston, TX":950,"Los Angeles, CA":225,"Indianapolis, IN":1.35},{"Auction Location":"San Diego 92154","Auction":"IAAI","City":"San Diego","State":"CA","Zip":92154,"Savannah, GA":1.55,"Newark, NJ":1.55,"Houston, TX":950,"Los Angeles, CA":225,"Indianapolis, IN":1.35},{"Auction Location":"San Francisco Bay","Auction":"Manhei m","City":"Hayward","State":"CA","Zip":94544,"Savannah, GA":1.55,"Newark, NJ":1.55,"Houston, TX":950,"Los Angeles, CA":325,"Indianapolis, IN":1.35},{"Auction Location":"San Jose","Auction":"Adesa","City":"San Jose","State":"CA","Zip":95111,"Savannah, GA":1.55,"Newark, NJ":1.55,"Houston, TX":950,"Los Angeles, CA":325,"Indianapolis, IN":1.35},{"Auction Location":"SAN JOSE (CA) 95046","Auction":"Copart","City":"SAN MARTIN","State":"CA","Zip":95046,"Savannah, GA":1.55,"Newark, NJ":1.55,"Houston, TX":950,"Los Angeles, CA":325,"Indianapolis, IN":1.35},{"Auction Location":"Sarasota 34203","Auction":"Adesa","City":"Bradenton","State":"FL","Zip":34203,"Savannah, GA":300,"Newark, NJ":850,"Houston, TX":850,"Los Angeles, CA":1.65,"Indianapolis, IN":1.15},{"Auction Location":"SAVANNAH (GA) 31405","Auction":"Copart","City":"SAVANNAH","State":"GA","Zip":31405,"Savannah, GA":150,"Newark, NJ":600,"Houston, TX":600,"Los Angeles, CA":1.4,"Indianapolis, IN":800},{"Auction Location":"Savannah 31326","Auction":"IAAI","City":"Rincon","State":"GA","Zip":31326,"Savannah, GA":150,"Newark, NJ":600,"Houston, TX":600,"Los Angeles, CA":1.4,"Indianapolis, IN":800},{"Auction Location":"SCRANTON (PA) 18642","Auction":"Copart","City":"DURYEA","State":"PA","Zip":18642,"Savannah, GA":750,"Newark, NJ":275,"Houston, TX":1.15,"Los Angeles, CA":1.65,"Indianapolis, IN":550},{"Auction Location":"Scranton 18640","Auction":"IAAI","City":"Pittston","State":"PA","Zip":18640,"Savannah, GA":750,"Newark, NJ":275,"Houston, TX":1.15,"Los Angeles, CA":1.65,"Indianapolis, IN":550},{"Auction Location":"SEAFORD (DE) 19973","Auction":"Copart","City":"SEAFORD","State":"DE","Zip":19973,"Savannah, GA":650,"Newark, NJ":275,"Houston, TX":1.05,"Los Angeles, CA":1.65,"Indianapolis, IN":650},{"Auction Location":"Seattle","Auction":"Manhei m","City":"Kent","State":"WA","Zip":98032,"Savannah, GA":1.95,"Newark, NJ":1.55,"Houston, TX":1.35,"Los Angeles, CA":650,"Indianapolis, IN":1.15},{"Auction Location":"Seattle 98001","Auction":"Adesa","City":"Auburn","State":"WA","Zip":98001,"Savannah, GA":1.95,"Newark, NJ":1.55,"Houston, TX":1.35,"Los Angeles, CA":650,"Indianapolis, IN":1.15},{"Auction Location":"Seattle 98108","Auction":"IAAI","City":"Tukwila","State":"WA","Zip":98108,"Savannah, GA":1.95,"Newark, NJ":1.55,"Houston, TX":1.35,"Los Angeles, CA":650,"Indianapolis, IN":1.15},{"Auction Location":"Seattle South (WA) 98390","Auction":"IAAI","City":"Sumner","State":"WA","Zip":98390,"Savannah, GA":1.95,"Newark, NJ":1.55,"Houston, TX":1.35,"Los Angeles, CA":650,"Indianapolis, IN":1.15},{"Auction Location":"Shady Spring 25918","Auction":"IAAI","City":"Shady Spring","State":"WV","Zip":25918,"Savannah, GA":650,"Newark, NJ":550,"Houston, TX":850,"Los Angeles, CA":1.65,"Indianapolis, IN":550},{"Auction Location":"Shreveport (LA)","Auction":"IAAI","City":"Greenwood","State":"LA","Zip":71033,"Savannah, GA":600,"Newark, NJ":850,"Houston, TX":300,"Los Angeles, CA":1.05,"Indianapolis, IN":700},{"Auction Location":"SHREVEPORT (LA) 71109","Auction":"Copart","City":"SHREVEPORT","State":"LA","Zip":71109,"Savannah, GA":600,"Newark, NJ":850,"Houston, TX":300,"Los Angeles, CA":1.05,"Indianapolis, IN":700},{"Auction Location":"Shreveport 71119","Auction":"Adesa","City":"Shreveport","State":"LA","Zip":71119,"Savannah, GA":600,"Newark, NJ":850,"Houston, TX":300,"Los Angeles, CA":1.05,"Indianapolis, IN":700},{"Auction Location":"SIKESTON (MO) 63801","Auction":"Copart","City":"SIKESTON","State":"MO","Zip":63801,"Savannah, GA":650,"Newark, NJ":700,"Houston, TX":400,"Los Angeles, CA":1.35,"Indianapolis, IN":475},{"Auction Location":"Sioux Falls 57064","Auction":"Adesa","City":"Tea","State":"SD","Zip":57064,"Savannah, GA":1.35,"Newark, NJ":1.05,"Houston, TX":1.25,"Los Angeles, CA":1.25,"Indianapolis, IN":700},{"Auction Location":"Sioux Falls 57104","Auction":"IAAI","City":"Sioux Falls","State":"SD","Zip":57104,"Savannah, GA":1.35,"Newark, NJ":1.05,"Houston, TX":1.25,"Los Angeles, CA":1.25,"Indianapolis, IN":700},{"Auction Location":"SO SACRAMENTO (CA) 95828","Auction":"Copart","City":"SACRAMENTO","State":"CA","Zip":95828,"Savannah, GA":1.55,"Newark, NJ":1.55,"Houston, TX":950,"Los Angeles, CA":325,"Indianapolis, IN":1.35},{"Auction Location":"SO SACRAMENTO 95828","Auction":"Copart","City":"SACRAMENTO","State":"CA","Zip":95828,"Savannah, GA":1.55,"Newark, NJ":1.55,"Houston, TX":950,"Los Angeles, CA":325,"Indianapolis, IN":1.35},{"Auction Location":"SOMERVILLE (NJ) 08844","Auction":"Copart","City":"HILLSBOROUG H","State":"NJ","Zip":8844,"Savannah, GA":650,"Newark, NJ":150,"Houston, TX":1.15,"Los Angeles, CA":1.65,"Indianapolis, IN":650},{"Auction Location":"South Bend 46619","Auction":"IAAI","City":"South Bend","State":"IN","Zip":46619,"Savannah, GA":700,"Newark, NJ":500,"Houston, TX":850,"Los Angeles, CA":1.65,"Indianapolis, IN":225},{"Auction Location":"SOUTH BOSTON (MA) 01756","Auction":"Copart","City":"MENDON","State":"MA","Zip":1756,"Savannah, GA":850,"Newark, NJ":350,"Houston, TX":1.25,"Los Angeles, CA":1.85,"Indianapolis, IN":750},{"Auction Location":"South Houston","Auction":"Manhei m","City":"Houston","State":"TX","Zip":77034,"Savannah, GA":600,"Newark, NJ":950,"Houston, TX":150,"Los Angeles, CA":850,"Indianapolis, IN":850},{"Auction Location":"Southern California","Auction":"Manhei m","City":"Fontana","State":"CA","Zip":92337,"Savannah, GA":1.45,"Newark, NJ":1.55,"Houston, TX":850,"Los Angeles, CA":150,"Indianapolis, IN":1.35},{"Auction Location":"SOUTHERN ILLINOIS (IL) 62207","Auction":"Copart","City":"ALORTON","State":"IL","Zip":62207,"Savannah, GA":700,"Newark, NJ":550,"Houston, TX":750,"Los Angeles, CA":1.55,"Indianapolis, IN":250},{"Auction Location":"Southern New Jersey 08012","Auction":"IAAI","City":"Turnersville","State":"NJ","Zip":8012,"Savannah, GA":650,"Newark, NJ":200,"Houston, TX":1.15,"Los Angeles, CA":1.65,"Indianapolis, IN":650},{"Auction Location":"SPARTANBURG (SC) 29301","Auction":"Copart","City":"SPARTANBUR G","State":"South Carolin a","Zip":29301,"Savannah, GA":275,"Newark, NJ":500,"Houston, TX":750,"Los Angeles, CA":1.45,"Indianapolis, IN":800},{"Auction Location":"Specialty Division IL","Auction":"IAAI","City":"Wheeling","State":"IL","Zip":60090,"Savannah, GA":800,"Newark, NJ":550,"Houston, TX":750,"Los Angeles, CA":1.55,"Indianapolis, IN":200},{"Auction Location":"SPOKANE (WA) 99001","Auction":"Copart","City":"AIRWAY HEIGHTS","State":"WA","Zip":99001,"Savannah, GA":1.95,"Newark, NJ":1.55,"Houston, TX":1.35,"Los Angeles, CA":750,"Indianapolis, IN":1.15},{"Auction Location":"Spokane 99224","Auction":"IAAI","City":"Spokane","State":"WA","Zip":"99224-\r\n9048","Savannah, GA":1.95,"Newark, NJ":1.55,"Houston, TX":1.35,"Los Angeles, CA":750,"Indianapolis, IN":1.15},{"Auction Location":"SPRINGFIELD (MO) 65742","Auction":"Copart","City":"ROGERSVILLE","State":"MO","Zip":65742,"Savannah, GA":650,"Newark, NJ":700,"Houston, TX":650,"Los Angeles, CA":1.35,"Indianapolis, IN":500},{"Auction Location":"Springfield 65803","Auction":"IAAI","City":"Springfield","State":"MO","Zip":"65803-\r\n5637","Savannah, GA":650,"Newark, NJ":700,"Houston, TX":650,"Los Angeles, CA":1.35,"Indianapolis, IN":500},{"Auction Location":"ST. CLOUD (MN) 56310","Auction":"Copart","City":"AVON","State":"MN","Zip":56310,"Savannah, GA":1.15,"Newark, NJ":850,"Houston, TX":1.25,"Los Angeles, CA":1.95,"Indianapolis, IN":500},{"Auction Location":"St. Louis","Auction":"Manhei m","City":"Bridgeton","State":"MO","Zip":63044,"Savannah, GA":700,"Newark, NJ":550,"Houston, TX":750,"Los Angeles, CA":1.55,"Indianapolis, IN":225},{"Auction Location":"ST. LOUIS (MO) 63044","Auction":"Copart","City":"BRIDGETON","State":"MO","Zip":63044,"Savannah, GA":700,"Newark, NJ":550,"Houston, TX":750,"Los Angeles, CA":1.55,"Indianapolis, IN":225},{"Auction Location":"St. Louis 62040","Auction":"IAAI","City":"Granite City","State":"IL","Zip":"62040-\r\n6466","Savannah, GA":700,"Newark, NJ":550,"Houston, TX":750,"Los Angeles, CA":1.55,"Indianapolis, IN":225},{"Auction Location":"St. Louis 63012","Auction":"Adesa","City":"Barnhart","State":"MO","Zip":63012,"Savannah, GA":700,"Newark, NJ":550,"Houston, TX":750,"Los Angeles, CA":1.55,"Indianapolis, IN":300},{"Auction Location":"St. Pete","Auction":"Manhei m","City":"Clearwater","State":"FL","Zip":33762,"Savannah, GA":325,"Newark, NJ":850,"Houston, TX":850,"Los Angeles, CA":1.65,"Indianapolis, IN":1.15},{"Auction Location":"Statesville","Auction":"Manhei m","City":"Statesville","State":"NC","Zip":28625,"Savannah, GA":325,"Newark, NJ":450,"Houston, TX":850,"Los Angeles, CA":1.45,"Indianapolis, IN":750},{"Auction Location":"Suffolk (VA) 23434","Auction":"IAAI","City":"Suffolk","State":"VA","Zip":23434,"Savannah, GA":550,"Newark, NJ":390,"Houston, TX":850,"Los Angeles, CA":1.65,"Indianapolis, IN":650},{"Auction Location":"SUN VALLEY (CA) 91352","Auction":"Copart","City":"SUN VALLEY","State":"CA","Zip":91352,"Savannah, GA":1.45,"Newark, NJ":1.55,"Houston, TX":850,"Los Angeles, CA":200,"Indianapolis, IN":1.35},{"Auction Location":"SYRACUSE (NY) 13036","Auction":"Copart","City":"CENTRAL SQUARE","State":"NY","Zip":13036,"Savannah, GA":850,"Newark, NJ":325,"Houston, TX":1.25,"Los Angeles, CA":1.65,"Indianapolis, IN":500},{"Auction Location":"Syracuse 13039","Auction":"Adesa","City":"Cicero","State":"NY","Zip":13039,"Savannah, GA":850,"Newark, NJ":325,"Houston, TX":1.25,"Los Angeles, CA":1.65,"Indianapolis, IN":500},{"Auction Location":"Syracuse 13039","Auction":"IAAI","City":"Cicero","State":"NY","Zip":13039,"Savannah, GA":850,"Newark, NJ":325,"Houston, TX":1.25,"Los Angeles, CA":1.65,"Indianapolis, IN":500},{"Auction Location":"TALLAHASSEE (FL) 32343","Auction":"Copart","City":"MIDWAY","State":"FL","Zip":32343,"Savannah, GA":325,"Newark, NJ":850,"Houston, TX":900,"Los Angeles, CA":1.7,"Indianapolis, IN":1.25},{"Auction Location":"Tampa","Auction":"Manhei m","City":"Tampa","State":"FL","Zip":33619,"Savannah, GA":300,"Newark, NJ":850,"Houston, TX":850,"Los Angeles, CA":1.65,"Indianapolis, IN":1.15},{"Auction Location":"Tampa 33619","Auction":"Adesa","City":"Tampa","State":"FL","Zip":33619,"Savannah, GA":300,"Newark, NJ":850,"Houston, TX":850,"Los Angeles, CA":1.65,"Indianapolis, IN":1.15},{"Auction Location":"Tampa 34221","Auction":"IAAI","City":"Palmetto","State":"FL","Zip":"34221-\r\n2847","Savannah, GA":300,"Newark, NJ":850,"Houston, TX":850,"Los Angeles, CA":1.65,"Indianapolis, IN":1.15},{"Auction Location":"Tampa North 34667","Auction":"IAAI","City":"Hudson","State":"FL","Zip":34667,"Savannah, GA":300,"Newark, NJ":850,"Houston, TX":850,"Los Angeles, CA":1.65,"Indianapolis, IN":1.15},{"Auction Location":"TAMPA SOUTH (FL) 33578","Auction":"Copart","City":"RIVERVIEW","State":"FL","Zip":33578,"Savannah, GA":300,"Newark, NJ":850,"Houston, TX":850,"Los Angeles, CA":1.65,"Indianapolis, IN":1.15},{"Auction Location":"TANNER (AL) 35671","Auction":"Copart","City":"TANNER","State":"AL","Zip":35671,"Savannah, GA":350,"Newark, NJ":650,"Houston, TX":650,"Los Angeles, CA":1.45,"Indianapolis, IN":800},{"Auction Location":"Taunton 02718","Auction":"IAAI","City":"East Taunton","State":"MA","Zip":2718,"Savannah, GA":850,"Newark, NJ":350,"Houston, TX":1.25,"Los Angeles, CA":1.85,"Indianapolis, IN":750},{"Auction Location":"Templeton, MA 01468","Auction":"IAAI","City":"Templeton","State":"MA","Zip":1468,"Savannah, GA":850,"Newark, NJ":350,"Houston, TX":1.25,"Los Angeles, CA":1.85,"Indianapolis, IN":750},{"Auction Location":"Texas Hobby","Auction":"Manhei m","City":"Houston","State":"TX","Zip":77061,"Savannah, GA":600,"Newark, NJ":950,"Houston, TX":125,"Los Angeles, CA":850,"Indianapolis, IN":850},{"Auction Location":"Tidewater VA 23693","Auction":"IAAI","City":"Yorktown","State":"VA","Zip":"23693-\r\n4027","Savannah, GA":550,"Newark, NJ":390,"Houston, TX":850,"Los Angeles, CA":1.65,"Indianapolis, IN":650},{"Auction Location":"TIFTON (GA) 31794","Auction":"Copart","City":"TIFTON","State":"GA","Zip":31794,"Savannah, GA":250,"Newark, NJ":750,"Houston, TX":650,"Los Angeles, CA":1.45,"Indianapolis, IN":800},{"Auction Location":"Tifton 31794","Auction":"IAAI","City":"Tifton","State":"GA","Zip":31794,"Savannah, GA":250,"Newark, NJ":750,"Houston, TX":650,"Los Angeles, CA":1.45,"Indianapolis, IN":800},{"Auction Location":"Total Resource Auctions Oklahoma City 73121","Auction":"TRA","City":"Oklahoma City","State":"OK","Zip":73121,"Savannah, GA":750,"Newark, NJ":900,"Houston, TX":400,"Los Angeles, CA":950,"Indianapolis, IN":600},{"Auction Location":"Total Resourse - Milwaukee 53108","Auction":"TRA","City":"Caledonia","State":"WI","Zip":53108,"Savannah, GA":1.1,"Newark, NJ":750,"Houston, TX":1.05,"Los Angeles, CA":1.95,"Indianapolis, IN":300},{"Auction Location":"TRA  - Denver 80125","Auction":"TRA","City":"Littleton","State":"Co","Zip":80125,"Savannah, GA":1.1,"Newark, NJ":1.05,"Houston, TX":650,"Los Angeles, CA":850,"Indianapolis, IN":850},{"Auction Location":"TRA - Birmingham 35210","Auction":"TRA","City":"Birmingham","State":"AL","Zip":35210,"Savannah, GA":360,"Newark, NJ":700,"Houston, TX":600,"Los Angeles, CA":1.45,"Indianapolis, IN":800},{"Auction Location":"TRA - Dallas Wilmer 75172","Auction":"TRA","City":"Wilmer","State":"TX","Zip":75172,"Savannah, GA":750,"Newark, NJ":950,"Houston, TX":250,"Los Angeles, CA":950,"Indianapolis, IN":800},{"Auction Location":"TRA - Houston Hobby 77061","Auction":"TRA","City":"Houston","State":"TX","Zip":77061,"Savannah, GA":600,"Newark, NJ":950,"Houston, TX":125,"Los Angeles, CA":850,"Indianapolis, IN":850},{"Auction Location":"TRA - Mississippi 39402","Auction":"TRA","City":"Hattiesburg","State":"MS","Zip":39402,"Savannah, GA":450,"Newark, NJ":800,"Houston, TX":410,"Los Angeles, CA":1.15,"Indianapolis, IN":800},{"Auction Location":"TRA - Northerm Minnesota","Auction":"TRA","City":"Shakope","State":"MN","Zip":22379,"Savannah, GA":1.15,"Newark, NJ":850,"Houston, TX":1.25,"Los Angeles, CA":1.95,"Indianapolis, IN":500},{"Auction Location":"TRA - Omaha 68138","Auction":"TRA","City":"Omaha","State":"NE","Zip":68138,"Savannah, GA":950,"Newark, NJ":725,"Houston, TX":750,"Los Angeles, CA":1.35,"Indianapolis, IN":650},{"Auction Location":"TRA - Springfield 65807","Auction":"TRA","City":"Springfield","State":"MO","Zip":65807,"Savannah, GA":650,"Newark, NJ":700,"Houston, TX":650,"Los Angeles, CA":1.35,"Indianapolis, IN":500},{"Auction Location":"TRA - Tulsa  74066","Auction":"TRA","City":"Sapulpa","State":"OK","Zip":74066,"Savannah, GA":750,"Newark, NJ":900,"Houston, TX":380,"Los Angeles, CA":1.05,"Indianapolis, IN":600},{"Auction Location":"TRA - Wichita 67217","Auction":"TRA","City":"Wichita","State":"KS","Zip":67217,"Savannah, GA":800,"Newark, NJ":750,"Houston, TX":500,"Los Angeles, CA":1.35,"Indianapolis, IN":500},{"Auction Location":"TRA Birmingham 35210","Auction":"TRA","City":"Birmingham","State":"AL","Zip":35210,"Savannah, GA":360,"Newark, NJ":700,"Houston, TX":600,"Los Angeles, CA":1.45,"Indianapolis, IN":800},{"Auction Location":"TRA Lexington 29073","Auction":"TRA","City":"Lexington","State":"SC","Zip":29073,"Savannah, GA":225,"Newark, NJ":500,"Houston, TX":750,"Los Angeles, CA":1.55,"Indianapolis, IN":350},{"Auction Location":"TRA Little Rock 72032","Auction":"TRA","City":"Conway","State":"AR","Zip":72032,"Savannah, GA":600,"Newark, NJ":850,"Houston, TX":400,"Los Angeles, CA":1.15,"Indianapolis, IN":600},{"Auction Location":"TRA Lubbock 79404","Auction":"TRA","City":"Lubbock","State":"TX","Zip":79404,"Savannah, GA":950,"Newark, NJ":1.35,"Houston, TX":450,"Los Angeles, CA":750,"Indianapolis, IN":950},{"Auction Location":"TRA -Mobile, AL 36619","Auction":"TRA","City":"Mobile","State":"Al","Zip":36619,"Savannah, GA":350},{"Auction Location":"TRA New Orleans 70460","Auction":"TRA","City":"Slidel","State":"LA","Zip":70460,"Savannah, GA":450,"Newark, NJ":850,"Houston, TX":290,"Los Angeles, CA":1.05,"Indianapolis, IN":800},{"Auction Location":"TRA ST Louis","Auction":"TRA","City":"Bridgeton","State":"MO","Zip":63044,"Savannah, GA":700,"Newark, NJ":550,"Houston, TX":750,"Los Angeles, CA":1.55,"Indianapolis, IN":225},{"Auction Location":"TRA-Utah","Auction":"TRA","City":"Woods Cross","State":"UT","Zip":84087,"Savannah, GA":1.75,"Newark, NJ":1.35,"Houston, TX":1.15,"Los Angeles, CA":470,"Indianapolis, IN":750},{"Auction Location":"TRENTON (NJ) 08561","Auction":"Copart","City":"WINDSOR","State":"NJ","Zip":8561,"Savannah, GA":650,"Newark, NJ":150,"Houston, TX":1.15,"Los Angeles, CA":1.65,"Indianapolis, IN":650},{"Auction Location":"Tucson","Auction":"Manhei m","City":"Tucson","State":"AZ","Zip":85756,"Savannah, GA":1.3,"Newark, NJ":1.35,"Houston, TX":700,"Los Angeles, CA":375,"Indianapolis, IN":1.35},{"Auction Location":"Tucson 85714","Auction":"IAAI","City":"Tucson","State":"AZ","Zip":85714,"Savannah, GA":1.3,"Newark, NJ":1.35,"Houston, TX":700,"Los Angeles, CA":375,"Indianapolis, IN":1.35},{"Auction Location":"TUCSON AZ) 85706","Auction":"Copart","City":"TUCSON","State":"AZ","Zip":85706,"Savannah, GA":1.3,"Newark, NJ":1.35,"Houston, TX":700,"Los Angeles, CA":375,"Indianapolis, IN":1.35},{"Auction Location":"Tucson, AZ 85756","Auction":"TRA","City":"Tucson","State":"AZ","Zip":85756,"Savannah, GA":1.3,"Newark, NJ":1.35,"Houston, TX":700,"Los Angeles, CA":325,"Indianapolis, IN":1.35},{"Auction Location":"Tulsa","Auction":"Manhei m","City":"Sapulpa","State":"OK","Zip":74066,"Savannah, GA":750,"Newark, NJ":900,"Houston, TX":400,"Los Angeles, CA":1.05,"Indianapolis, IN":600},{"Auction Location":"Tulsa  OK 74107","Auction":"IAAI","City":"Tulsa","State":"OK","Zip":74107,"Savannah, GA":750,"Newark, NJ":900,"Houston, TX":400,"Los Angeles, CA":1.05,"Indianapolis, IN":600},{"Auction Location":"TULSA (OK) 74107","Auction":"Copart","City":"TULSA","State":"OK","Zip":74107,"Savannah, GA":750,"Newark, NJ":900,"Houston, TX":380,"Los Angeles, CA":1.05,"Indianapolis, IN":600},{"Auction Location":"Tulsa 74116","Auction":"Adesa","City":"Tulsa","State":"OK","Zip":74116,"Savannah, GA":750,"Newark, NJ":900,"Houston, TX":400,"Los Angeles, CA":1.05,"Indianapolis, IN":600},{"Auction Location":"Utah","Auction":"Manhei m","City":"Woods Cross","State":"UT","Zip":84087,"Savannah, GA":1.75,"Newark, NJ":1.35,"Houston, TX":1.15,"Los Angeles, CA":500,"Indianapolis, IN":750},{"Auction Location":"VALLEJO (CA) 94590","Auction":"Copart","City":"VALLEJO","State":"CA","Zip":94590,"Savannah, GA":1.55,"Newark, NJ":1.55,"Houston, TX":950,"Los Angeles, CA":325,"Indianapolis, IN":1.35},{"Auction Location":"VAN NUYS (CA) 91405","Auction":"Copart","City":"VAN NUYS","State":"CA","Zip":91405,"Savannah, GA":1.45,"Newark, NJ":1.55,"Houston, TX":850,"Los Angeles, CA":175,"Indianapolis, IN":1.35},{"Auction Location":"WACO (TX) 76501","Auction":"Copart","City":"TEMPLE","State":"TX","Zip":76501,"Savannah, GA":750,"Newark, NJ":950,"Houston, TX":300,"Los Angeles, CA":950,"Indianapolis, IN":800},{"Auction Location":"WALTON (KY) 41094","Auction":"Copart","City":"WALTON","State":"KY","Zip":41094,"Savannah, GA":550,"Newark, NJ":430,"Houston, TX":850,"Los Angeles, CA":1.75,"Indianapolis, IN":250},{"Auction Location":"WASHINGTON (DC) 20602","Auction":"Copart","City":"WALDORF","State":"MD","Zip":20602,"Savannah, GA":650,"Newark, NJ":300,"Houston, TX":950,"Los Angeles, CA":1.65,"Indianapolis, IN":650},{"Auction Location":"Washington DC (VA) 20166","Auction":"Adesa","City":"Dulles","State":"VA","Zip":20166,"Savannah, GA":650,"Newark, NJ":290,"Houston, TX":950,"Los Angeles, CA":1.65,"Indianapolis, IN":650},{"Auction Location":"WEST PALM BEACH (FL) 33411","Auction":"Copart","City":"WEST PALM BEACH","State":"FL","Zip":33411,"Savannah, GA":350,"Newark, NJ":900,"Houston, TX":900,"Los Angeles, CA":1.7,"Indianapolis, IN":1.25},{"Auction Location":"West Texas","Auction":"Manhei m","City":"Lubbock","State":"TX","Zip":79404,"Savannah, GA":950,"Newark, NJ":1.35,"Houston, TX":450,"Los Angeles, CA":750,"Indianapolis, IN":950},{"Auction Location":"WEST WARREN (MA) 01092","Auction":"Copart","City":"WEST WARREN","State":"MA","Zip":1092,"Savannah, GA":850,"Newark, NJ":350,"Houston, TX":1.35,"Los Angeles, CA":1.95,"Indianapolis, IN":850},{"Auction Location":"Western Colorado 81416","Auction":"IAAI","City":"Delta","State":"CO","Zip":81416,"Savannah, GA":1.55,"Newark, NJ":1.35,"Houston, TX":950,"Los Angeles, CA":1.05,"Indianapolis, IN":1.05},{"Auction Location":"WHEELING (IL) 60090","Auction":"Copart","City":"WHEELING","State":"IL","Zip":60090,"Savannah, GA":800,"Newark, NJ":500,"Houston, TX":850,"Los Angeles, CA":1.55,"Indianapolis, IN":200},{"Auction Location":"WICHITA (KS) 67216","Auction":"Copart","City":"WICHITA","State":"KS","Zip":67216,"Savannah, GA":800,"Newark, NJ":750,"Houston, TX":500,"Los Angeles, CA":1.35,"Indianapolis, IN":500},{"Auction Location":"Wichita (KS) 67219","Auction":"IAAI","City":"Wichita","State":"KS","Zip":67219,"Savannah, GA":800,"Newark, NJ":750,"Houston, TX":500,"Los Angeles, CA":1.35,"Indianapolis, IN":500},{"Auction Location":"Wilmington","Auction":"Manhei m","City":"Wilmington","State":"NC","Zip":28405,"Savannah, GA":325,"Newark, NJ":450,"Houston, TX":850,"Los Angeles, CA":1.45,"Indianapolis, IN":750},{"Auction Location":"Wilmington 28429","Auction":"IAAI","City":"Castle Hayne","State":"NC","Zip":"28429-\r\n5841","Savannah, GA":300,"Newark, NJ":450,"Houston, TX":850,"Los Angeles, CA":1.45,"Indianapolis, IN":750},{"Auction Location":"Wisconsin 53901","Auction":"Adesa","City":"Portage","State":"WI","Zip":53901,"Savannah, GA":1.1,"Newark, NJ":750,"Houston, TX":1.05,"Los Angeles, CA":1.95,"Indianapolis, IN":350},{"Auction Location":"YORK HAVEN (PA) 17370","Auction":"Copart","City":"YORK HAVEN","State":"PA","Zip":17370,"Savannah, GA":750,"Newark, NJ":275,"Houston, TX":1.15,"Los Angeles, CA":1.65,"Indianapolis, IN":550},{"Auction Location":"York Springs, PA 17372","Auction":"IAAI","City":"York Springs","State":"PA","Zip":17372,"Savannah, GA":750,"Newark, NJ":275,"Houston, TX":1.15,"Los Angeles, CA":1.65,"Indianapolis, IN":550}]}